{
"type": "FeatureCollection",
"name": "bounds",
"crs": { "type": "name", "properties": { "name": "urn:ogc:def:crs:EPSG::3857" } },
"features": [
{ "type": "Feature", "properties": { }, "geometry": { "type": "Polygon", "coordinates": [ [ [ -2045303.123409397667274, 20037508.342789243906736 ], [ -1687403.757542085135356, 20037508.342789243906736 ], [ -1687403.757542085135356, -20037508.342789243906736 ], [ -2045303.123409397667274, -20037508.342789243906736 ], [ -2045303.123409397667274, 20037508.342789243906736 ] ] ] } }
]
}
