{
"type": "FeatureCollection",
"name": "maxsorted",
"crs": { "type": "name", "properties": { "name": "urn:ogc:def:crs:EPSG::3857" } },
"features": [
{ "type": "Feature", "properties": { "value": 0 }, "geometry": { "type": "Polygon", "coordinates": [ [ [ -1990075.704201194923371, 3246657.942650221288204 ], [ -1989614.609795659314841, 3214863.067472546827048 ], [ -2016870.559487767517567, 3198194.783685048576444 ], [ -2044683.808187218615785, 3213194.581374295521528 ], [ -2045303.123409397667274, 3245008.880449837073684 ], [ -2017950.884197570616379, 3261804.739875881001353 ], [ -1990075.704201194923371, 3246657.942650221288204 ] ] ] } },
{ "type": "Feature", "properties": { "value": 1 }, "geometry": { "type": "Polygon", "coordinates": [ [ [ -1882652.785630208207294, 3839116.784205923322588 ], [ -1911790.039435474434868, 3855689.259939461946487 ], [ -1912041.869746863143519, 3889548.694310843013227 ], [ -1882980.098519947845489, 3906805.641355756670237 ], [ -1853781.34748001024127, 3890064.931500661186874 ], [ -1853705.708409181796014, 3856236.421555598732084 ], [ -1882652.785630208207294, 3839116.784205923322588 ] ] ] } },
{ "type": "Feature", "properties": { "value": 2 }, "geometry": { "type": "Polygon", "coordinates": [ [ [ -1964239.355218264274299, 3391759.957383435685188 ], [ -1963847.193780289264396, 3359490.666019201278687 ], [ -1935850.841197304194793, 3344044.062672781292349 ], [ -1935542.295203409623355, 3311948.447042703162879 ], [ -1907730.479640327161178, 3296548.854855922516435 ], [ -1880169.936691339593381, 3313093.568066096398979 ], [ -1852486.335355276009068, 3297592.157841274049133 ], [ -1824896.891000640578568, 3314007.739275653846562 ], [ -1824885.815719204256311, 3346047.910555566195399 ], [ -1797164.00072563928552, 3362455.320118410512805 ], [ -1769561.18117453949526, 3346699.845393302850425 ], [ -1769731.169653729535639, 3314692.088862046133727 ], [ -1797345.229606920853257, 3298406.613413725048304 ], [ -1797435.0661063301377, 3266543.148178660310805 ], [ -1824918.851572891930118, 3250249.5155891017057 ], [ -1852418.305901487590745, 3265698.17183974897489 ], [ -1879875.566883929306641, 3249277.385409354232252 ], [ -1907504.004823851166293, 3264627.437101491726935 ], [ -1934930.504878218984231, 3248080.508697273675352 ], [ -1962684.209881298011169, 3263329.921794135123491 ], [ -1963069.64052967610769, 3295275.657696637324989 ], [ -1991005.866334807127714, 3310571.386644034646451 ], [ -1991474.980144397122785, 3342689.98175429366529 ], [ -2019594.829849979607388, 3358029.439255147241056 ], [ -2020149.176309921545908, 3390320.319734202697873 ], [ -1992421.390461538918316, 3407250.964170014020056 ], [ -1964239.355218264274299, 3391759.957383435685188 ] ] ] } },
{ "type": "Feature", "properties": { "value": 3 }, "geometry": { "type": "Polygon", "coordinates": [ [ [ -1770235.325650731567293, 3219311.592171822208911 ], [ -1770068.233595912344754, 3250997.975847125984728 ], [ -1742562.147977099753916, 3267163.522105905227363 ], [ -1742315.092839072691277, 3298993.404534467030317 ], [ -1714680.6888795834966, 3315147.881142588797957 ], [ -1687403.757542085135356, 3299353.847786026541144 ], [ -1687807.317226217826828, 3267560.580908334814012 ], [ -1715331.494473630096763, 3251523.97421501763165 ], [ -1715654.120370698161423, 3219872.291927071288228 ], [ -1743052.045062193414196, 3203824.704181085340679 ], [ -1770235.325650731567293, 3219311.592171822208911 ] ] ] } }
]
}
