{
"type": "FeatureCollection",
"name": "result",
"crs": { "type": "name", "properties": { "name": "urn:ogc:def:crs:EPSG::3857" } },
"features": [
{ "type": "Feature", "properties": { }, "geometry": { "type": "MultiPolygon", "coordinates": [ [ [ [ 19870812.912107553333044, -1985367.509726479183882 ], [ 19877091.192736513912678, -1997414.199021629756317 ], [ 19878955.985597658902407, -2006972.01277440181002 ], [ 19875717.781658533960581, -2016834.207819359377027 ], [ 19869253.991257503628731, -2026175.660192377865314 ], [ 19860185.797258399426937, -2037040.874627109384164 ], [ 19846518.990275666117668, -2047927.272300664335489 ], [ 19828500.575753279030323, -2055092.852952867513523 ], [ 19809840.364584699273109, -2056738.985521585214883 ], [ 19794122.782124675810337, -2053165.415608814219013 ], [ 19779585.760859791189432, -2043748.65899368445389 ], [ 19770567.800535291433334, -2032650.073472241172567 ], [ 19766998.259010665118694, -2019557.202064463403076 ], [ 19769256.716949846595526, -2006165.524684179807082 ], [ 19775581.269238322973251, -1993720.881891458295286 ], [ 19786566.413477398455143, -1984738.324991721892729 ], [ 19799611.150032296776772, -1977927.182025199988857 ], [ 19813931.888175923377275, -1973738.3728253969457 ], [ 19828812.283297881484032, -1970035.867520241066813 ], [ 19846250.034370318055153, -1971101.722161165671423 ], [ 19860486.316567815840244, -1976764.598915298003703 ], [ 19870812.912107553333044, -1985367.509726479183882 ] ] ], [ [ [ 20121359.678602859377861, -1934538.311286265030503 ], [ 20110541.802622485905886, -1950664.410565088503063 ], [ 20096670.047719307243824, -1962150.608830562094226 ], [ 20081444.208875238895416, -1967314.6940076216124 ], [ 20064161.898208811879158, -1969176.087276249658316 ], [ 20046955.121609099209309, -1967779.68126389477402 ], [ 20028029.436062704771757, -1963634.030755040002987 ], [ 20007413.105363253504038, -1956184.396034018369392 ], [ 19987162.938688229769468, -1948846.044788814615458 ], [ 19968284.705452278256416, -1939465.16186658712104 ], [ 19950641.057912565767765, -1928173.580334283644333 ], [ 19934847.649201069027185, -1915434.613472872413695 ], [ 19922494.88288264349103, -1903349.84559528902173 ], [ 19915167.224376685917377, -1892958.849704027175903 ], [ 19910415.274498675018549, -1884494.363518315833062 ], [ 19910223.093046456575394, -1874864.096181970322505 ], [ 19915224.844005562365055, -1864180.942955540493131 ], [ 19922944.573229622095823, -1848888.566592612070963 ], [ 19935691.321925394237041, -1835212.351078064879403 ], [ 19953580.757171377539635, -1822302.698804671643302 ], [ 19975932.233653262257576, -1812151.473597821546718 ], [ 19999452.805941231548786, -1804386.771036583930254 ], [ 20022766.453227873891592, -1797881.785225836327299 ], [ 20044424.847973313182592, -1795812.094073382904753 ], [ 20063329.014686793088913, -1797653.271119916113093 ], [ 20080160.227096170186996, -1804222.211062193848193 ], [ 20096992.336988739669323, -1817378.986468764720485 ], [ 20110834.280266165733337, -1832902.835080806165934 ], [ 20121632.06727572530508, -1849579.671617631101981 ], [ 20129084.522530324757099, -1869589.546927066752687 ], [ 20131850.690218955278397, -1892509.943051947047934 ], [ 20128769.80559092387557, -1915074.478137576254085 ], [ 20121359.678602859377861, -1934538.311286265030503 ] ] ] ] } }
]
}
