{
"type": "FeatureCollection",
"name": "squares",
"crs": { "type": "name", "properties": { "name": "urn:ogc:def:crs:EPSG::3857" } },
"features": [
{ "type": "Feature", "properties": { }, "geometry": { "type": "Polygon", "coordinates": [ [ [ -20037508.342789243906736, -7883382.30979142524302 ], [ -20037508.342789243906736, -7831907.808371677994728 ], [ -19834727.021593291312456, -7831907.808371677994728 ], [ -19834727.021593291312456, -7883382.30979142524302 ], [ -20037508.342789243906736, -7883382.30979142524302 ] ] ] } },
{ "type": "Feature", "properties": { }, "geometry": { "type": "Polygon", "coordinates": [ [ [ -20037508.342789243906736, -7831907.808371677994728 ], [ -20037508.342789243906736, -7780638.819535788148642 ], [ -19835985.786169417202473, -7780638.819535788148642 ], [ -19835985.786169417202473, -7831907.808371677994728 ], [ -20037508.342789243906736, -7831907.808371677994728 ] ] ] } },
{ "type": "Feature", "properties": { }, "geometry": { "type": "Polygon", "coordinates": [ [ [ -20037508.342789243906736, -7780638.819535788148642 ], [ -20037508.342789243906736, -7729574.522772220894694 ], [ -19837239.525112394243479, -7729574.522772220894694 ], [ -19837239.525112394243479, -7780638.819535788148642 ], [ -20037508.342789243906736, -7780638.819535788148642 ] ] ] } },
{ "type": "Feature", "properties": { }, "geometry": { "type": "Polygon", "coordinates": [ [ [ -20037508.342789243906736, -7729574.522772220894694 ], [ -20037508.342789243906736, -7678714.100845344364643 ], [ -19838488.25848712772131, -7678714.100845344364643 ], [ -19838488.25848712772131, -7729574.522772220894694 ], [ -20037508.342789243906736, -7729574.522772220894694 ] ] ] } },
{ "type": "Feature", "properties": { }, "geometry": { "type": "Polygon", "coordinates": [ [ [ -20037508.342789243906736, -7678714.100845344364643 ], [ -20037508.342789243906736, -7628056.739782351069152 ], [ -19839732.006278410553932, -7628056.739782351069152 ], [ -19839732.006278410553932, -7678714.100845344364643 ], [ -20037508.342789243906736, -7678714.100845344364643 ] ] ] } },
{ "type": "Feature", "properties": { }, "geometry": { "type": "Polygon", "coordinates": [ [ [ -20037508.342789243906736, -7628056.739782351069152 ], [ -20037508.342789243906736, -7577601.628860229626298 ], [ -19840970.788391247391701, -7577601.628860229626298 ], [ -19840970.788391247391701, -7628056.739782351069152 ], [ -20037508.342789243906736, -7628056.739782351069152 ] ] ] } },
{ "type": "Feature", "properties": { }, "geometry": { "type": "Polygon", "coordinates": [ [ [ -20037508.342789243906736, -7577601.628860229626298 ], [ -20037508.342789243906736, -7527347.960592788644135 ], [ -19842204.624651171267033, -7527347.960592788644135 ], [ -19842204.624651171267033, -7577601.628860229626298 ], [ -20037508.342789243906736, -7577601.628860229626298 ] ] ] } },
{ "type": "Feature", "properties": { }, "geometry": { "type": "Polygon", "coordinates": [ [ [ -20037508.342789243906736, -7527347.960592788644135 ], [ -20037508.342789243906736, -7477294.930717738345265 ], [ -19843433.534804556518793, -7477294.930717738345265 ], [ -19843433.534804556518793, -7527347.960592788644135 ], [ -20037508.342789243906736, -7527347.960592788644135 ] ] ] } },
{ "type": "Feature", "properties": { }, "geometry": { "type": "Polygon", "coordinates": [ [ [ -20037508.342789243906736, -7477294.930717738345265 ], [ -20037508.342789243906736, -7427441.738183813169599 ], [ -19844657.538518954068422, -7427441.738183813169599 ], [ -19844657.538518954068422, -7477294.930717738345265 ], [ -20037508.342789243906736, -7477294.930717738345265 ] ] ] } },
{ "type": "Feature", "properties": { }, "geometry": { "type": "Polygon", "coordinates": [ [ [ -20037508.342789243906736, -7427441.738183813169599 ], [ -20037508.342789243906736, -7377787.585137956775725 ], [ -19845876.655383370816708, -7377787.585137956775725 ], [ -19845876.655383370816708, -7427441.738183813169599 ], [ -20037508.342789243906736, -7427441.738183813169599 ] ] ] } },
{ "type": "Feature", "properties": { }, "geometry": { "type": "Polygon", "coordinates": [ [ [ -20037508.342789243906736, -7377787.585137956775725 ], [ -20037508.342789243906736, -7328331.676912548951805 ], [ -19847090.904908623546362, -7328331.676912548951805 ], [ -19847090.904908623546362, -7377787.585137956775725 ], [ -20037508.342789243906736, -7377787.585137956775725 ] ] ] } },
{ "type": "Feature", "properties": { }, "geometry": { "type": "Polygon", "coordinates": [ [ [ -20037508.342789243906736, -7328331.676912548951805 ], [ -20037508.342789243906736, -7279073.222012692131102 ], [ -19848300.306527622044086, -7279073.222012692131102 ], [ -19848300.306527622044086, -7328331.676912548951805 ], [ -20037508.342789243906736, -7328331.676912548951805 ] ] ] } },
{ "type": "Feature", "properties": { }, "geometry": { "type": "Polygon", "coordinates": [ [ [ -20037508.342789243906736, -7279073.222012692131102 ], [ -20037508.342789243906736, -7230011.432103540748358 ], [ -19849504.879595689475536, -7230011.432103540748358 ], [ -19849504.879595689475536, -7279073.222012692131102 ], [ -20037508.342789243906736, -7279073.222012692131102 ] ] ] } },
{ "type": "Feature", "properties": { }, "geometry": { "type": "Polygon", "coordinates": [ [ [ -20037508.342789243906736, -7230011.432103540748358 ], [ -20037508.342789243906736, -7181145.521997685544193 ], [ -19850704.643390879034996, -7181145.521997685544193 ], [ -19850704.643390879034996, -7230011.432103540748358 ], [ -20037508.342789243906736, -7230011.432103540748358 ] ] ] } },
{ "type": "Feature", "properties": { }, "geometry": { "type": "Polygon", "coordinates": [ [ [ -20037508.342789243906736, -7181145.521997685544193 ], [ -20037508.342789243906736, -7132474.709642588160932 ], [ -19851899.617114271968603, -7132474.709642588160932 ], [ -19851899.617114271968603, -7181145.521997685544193 ], [ -20037508.342789243906736, -7181145.521997685544193 ] ] ] } },
{ "type": "Feature", "properties": { }, "geometry": { "type": "Polygon", "coordinates": [ [ [ -20037508.342789243906736, -7132474.709642588160932 ], [ -20037508.342789243906736, -7083998.216108064167202 ], [ -19853089.819890283048153, -7083998.216108064167202 ], [ -19853089.819890283048153, -7132474.709642588160932 ], [ -20037508.342789243906736, -7132474.709642588160932 ] ] ] } },
{ "type": "Feature", "properties": { }, "geometry": { "type": "Polygon", "coordinates": [ [ [ -20037508.342789243906736, -7083998.216108064167202 ], [ -20037508.342789243906736, -7035715.265573818236589 ], [ -19854275.270766988396645, -7035715.265573818236589 ], [ -19854275.270766988396645, -7083998.216108064167202 ], [ -20037508.342789243906736, -7083998.216108064167202 ] ] ] } },
{ "type": "Feature", "properties": { }, "geometry": { "type": "Polygon", "coordinates": [ [ [ -20037508.342789243906736, -7035715.265573818236589 ], [ -20037508.342789243906736, -6987625.085317026823759 ], [ -19855455.988716397434473, -6987625.085317026823759 ], [ -19855455.988716397434473, -7035715.265573818236589 ], [ -20037508.342789243906736, -7035715.265573818236589 ] ] ] } },
{ "type": "Feature", "properties": { }, "geometry": { "type": "Polygon", "coordinates": [ [ [ -20037508.342789243906736, -6987625.085317026823759 ], [ -20037508.342789243906736, -6939726.905699972063303 ], [ -19856631.992634784430265, -6939726.905699972063303 ], [ -19856631.992634784430265, -6987625.085317026823759 ], [ -20037508.342789243906736, -6987625.085317026823759 ] ] ] } },
{ "type": "Feature", "properties": { }, "geometry": { "type": "Polygon", "coordinates": [ [ [ -20037508.342789243906736, -6939726.905699972063303 ], [ -20037508.342789243906736, -6892019.960157724097371 ], [ -19857803.301342975348234, -6892019.960157724097371 ], [ -19857803.301342975348234, -6939726.905699972063303 ], [ -20037508.342789243906736, -6939726.905699972063303 ] ] ] } },
{ "type": "Feature", "properties": { }, "geometry": { "type": "Polygon", "coordinates": [ [ [ -20037508.342789243906736, -6892019.960157724097371 ], [ -20037508.342789243906736, -6844503.485185872763395 ], [ -19858969.933586657047272, -6844503.485185872763395 ], [ -19858969.933586657047272, -6892019.960157724097371 ], [ -20037508.342789243906736, -6892019.960157724097371 ] ] ] } },
{ "type": "Feature", "properties": { }, "geometry": { "type": "Polygon", "coordinates": [ [ [ -20037508.342789243906736, -6844503.485185872763395 ], [ -20037508.342789243906736, -6797176.720328309573233 ], [ -19860131.908036667853594, -6797176.720328309573233 ], [ -19860131.908036667853594, -6844503.485185872763395 ], [ -20037508.342789243906736, -6844503.485185872763395 ] ] ] } },
{ "type": "Feature", "properties": { }, "geometry": { "type": "Polygon", "coordinates": [ [ [ -20037508.342789243906736, -6797176.720328309573233 ], [ -20037508.342789243906736, -6750038.908165054395795 ], [ -19861289.243289306759834, -6750038.908165054395795 ], [ -19861289.243289306759834, -6797176.720328309573233 ], [ -20037508.342789243906736, -6797176.720328309573233 ] ] ] } },
{ "type": "Feature", "properties": { }, "geometry": { "type": "Polygon", "coordinates": [ [ [ -20037508.342789243906736, -6750038.908165054395795 ], [ -20037508.342789243906736, -6703089.294300138019025 ], [ -19862441.957866631448269, -6703089.294300138019025 ], [ -19862441.957866631448269, -6750038.908165054395795 ], [ -20037508.342789243906736, -6750038.908165054395795 ] ] ] } },
{ "type": "Feature", "properties": { }, "geometry": { "type": "Polygon", "coordinates": [ [ [ -20037508.342789243906736, -6703089.294300138019025 ], [ -20037508.342789243906736, -6656327.127349525690079 ], [ -19863590.070216745138168, -6656327.127349525690079 ], [ -19863590.070216745138168, -6703089.294300138019025 ], [ -20037508.342789243906736, -6703089.294300138019025 ] ] ] } },
{ "type": "Feature", "properties": { }, "geometry": { "type": "Polygon", "coordinates": [ [ [ -20037508.342789243906736, -6656327.127349525690079 ], [ -20037508.342789243906736, -6609751.658929092809558 ], [ -19864733.598714090883732, -6609751.658929092809558 ], [ -19864733.598714090883732, -6656327.127349525690079 ], [ -20037508.342789243906736, -6656327.127349525690079 ] ] ] } },
{ "type": "Feature", "properties": { }, "geometry": { "type": "Polygon", "coordinates": [ [ [ -20037508.342789243906736, -6609751.658929092809558 ], [ -20037508.342789243906736, -6563362.143642647191882 ], [ -19865872.561659760773182, -6563362.143642647191882 ], [ -19865872.561659760773182, -6609751.658929092809558 ], [ -20037508.342789243906736, -6609751.658929092809558 ] ] ] } },
{ "type": "Feature", "properties": { }, "geometry": { "type": "Polygon", "coordinates": [ [ [ -20037508.342789243906736, -6563362.143642647191882 ], [ -20037508.342789243906736, -6517157.839069999754429 ], [ -19867006.977281779050827, -6517157.839069999754429 ], [ -19867006.977281779050827, -6563362.143642647191882 ], [ -20037508.342789243906736, -6563362.143642647191882 ] ] ] } },
{ "type": "Feature", "properties": { }, "geometry": { "type": "Polygon", "coordinates": [ [ [ -20037508.342789243906736, -6517157.839069999754429 ], [ -20037508.342789243906736, -6471138.005755084566772 ], [ -19868136.863735388964415, -6471138.005755084566772 ], [ -19868136.863735388964415, -6517157.839069999754429 ], [ -20037508.342789243906736, -6517157.839069999754429 ] ] ] } },
{ "type": "Feature", "properties": { }, "geometry": { "type": "Polygon", "coordinates": [ [ [ -20037508.342789243906736, -6471138.005755084566772 ], [ -20037508.342789243906736, -6425301.907194122672081 ], [ -19869262.239103350788355, -6425301.907194122672081 ], [ -19869262.239103350788355, -6471138.005755084566772 ], [ -20037508.342789243906736, -6471138.005755084566772 ] ] ] } },
{ "type": "Feature", "properties": { }, "geometry": { "type": "Polygon", "coordinates": [ [ [ -20037508.342789243906736, -6425301.907194122672081 ], [ -20037508.342789243906736, -6379648.809823834337294 ], [ -19870383.121396228671074, -6379648.809823834337294 ], [ -19870383.121396228671074, -6425301.907194122672081 ], [ -20037508.342789243906736, -6425301.907194122672081 ] ] ] } },
{ "type": "Feature", "properties": { }, "geometry": { "type": "Polygon", "coordinates": [ [ [ -20037508.342789243906736, -6379648.809823834337294 ], [ -20037508.342789243906736, -6334177.983009702526033 ], [ -19871499.528552684932947, -6334177.983009702526033 ], [ -19871499.528552684932947, -6379648.809823834337294 ], [ -20037508.342789243906736, -6379648.809823834337294 ] ] ] } },
{ "type": "Feature", "properties": { }, "geometry": { "type": "Polygon", "coordinates": [ [ [ -20037508.342789243906736, -6334177.983009702526033 ], [ -20037508.342789243906736, -6288888.699034276418388 ], [ -19872611.478439755737782, -6288888.699034276418388 ], [ -19872611.478439755737782, -6334177.983009702526033 ], [ -20037508.342789243906736, -6334177.983009702526033 ] ] ] } },
{ "type": "Feature", "properties": { }, "geometry": { "type": "Polygon", "coordinates": [ [ [ -20037508.342789243906736, -6288888.699034276418388 ], [ -20037508.342789243906736, -6243780.233085525222123 ], [ -19873718.988853141665459, -6243780.233085525222123 ], [ -19873718.988853141665459, -6288888.699034276418388 ], [ -20037508.342789243906736, -6288888.699034276418388 ] ] ] } },
{ "type": "Feature", "properties": { }, "geometry": { "type": "Polygon", "coordinates": [ [ [ -20037508.342789243906736, -6243780.233085525222123 ], [ -20037508.342789243906736, -6198851.863245240412652 ], [ -19874822.077517498284578, -6198851.863245240412652 ], [ -19874822.077517498284578, -6243780.233085525222123 ], [ -20037508.342789243906736, -6243780.233085525222123 ] ] ] } },
{ "type": "Feature", "properties": { }, "geometry": { "type": "Polygon", "coordinates": [ [ [ -20037508.342789243906736, -6198851.863245240412652 ], [ -20037508.342789243906736, -6154102.870477480813861 ], [ -19875920.762086715549231, -6154102.870477480813861 ], [ -19875920.762086715549231, -6198851.863245240412652 ], [ -20037508.342789243906736, -6198851.863245240412652 ] ] ] } },
{ "type": "Feature", "properties": { }, "geometry": { "type": "Polygon", "coordinates": [ [ [ -20037508.342789243906736, -6154102.870477480813861 ], [ -20037508.342789243906736, -6109532.538617064245045 ], [ -19877015.060144193470478, -6109532.538617064245045 ], [ -19877015.060144193470478, -6154102.870477480813861 ], [ -20037508.342789243906736, -6154102.870477480813861 ] ] ] } },
{ "type": "Feature", "properties": { }, "geometry": { "type": "Polygon", "coordinates": [ [ [ -20037508.342789243906736, -6109532.538617064245045 ], [ -20037508.342789243906736, -6065140.154358107596636 ], [ -19878104.989203132688999, -6065140.154358107596636 ], [ -19878104.989203132688999, -6109532.538617064245045 ], [ -20037508.342789243906736, -6109532.538617064245045 ] ] ] } },
{ "type": "Feature", "properties": { }, "geometry": { "type": "Polygon", "coordinates": [ [ [ -20037508.342789243906736, -6065140.154358107596636 ], [ -20037508.342789243906736, -6020925.007242609746754 ], [ -19879190.566706821322441, -6020925.007242609746754 ], [ -19879190.566706821322441, -6065140.154358107596636 ], [ -20037508.342789243906736, -6065140.154358107596636 ] ] ] } },
{ "type": "Feature", "properties": { }, "geometry": { "type": "Polygon", "coordinates": [ [ [ -20037508.342789243906736, -6020925.007242609746754 ], [ -20037508.342789243906736, -5976886.389649082906544 ], [ -19880271.81002889201045, -5976886.389649082906544 ], [ -19880271.81002889201045, -6020925.007242609746754 ], [ -20037508.342789243906736, -6020925.007242609746754 ] ] ] } },
{ "type": "Feature", "properties": { }, "geometry": { "type": "Polygon", "coordinates": [ [ [ -20037508.342789243906736, -5976886.389649082906544 ], [ -20037508.342789243906736, -5933023.596781226806343 ], [ -19881348.736473623663187, -5933023.596781226806343 ], [ -19881348.736473623663187, -5976886.389649082906544 ], [ -20037508.342789243906736, -5976886.389649082906544 ] ] ] } },
{ "type": "Feature", "properties": { }, "geometry": { "type": "Polygon", "coordinates": [ [ [ -20037508.342789243906736, -5933023.596781226806343 ], [ -20037508.342789243906736, -5889335.926656647585332 ], [ -19882421.363276194781065, -5889335.926656647585332 ], [ -19882421.363276194781065, -5933023.596781226806343 ], [ -20037508.342789243906736, -5933023.596781226806343 ] ] ] } },
{ "type": "Feature", "properties": { }, "geometry": { "type": "Polygon", "coordinates": [ [ [ -20037508.342789243906736, -5889335.926656647585332 ], [ -20037508.342789243906736, -5845822.680095626041293 ], [ -19883489.707602985203266, -5845822.680095626041293 ], [ -19883489.707602985203266, -5889335.926656647585332 ], [ -20037508.342789243906736, -5889335.926656647585332 ] ] ] } },
{ "type": "Feature", "properties": { }, "geometry": { "type": "Polygon", "coordinates": [ [ [ -20037508.342789243906736, -5845822.680095626041293 ], [ -20037508.342789243906736, -5802483.160709925927222 ], [ -19884553.786551833152771, -5802483.160709925927222 ], [ -19884553.786551833152771, -5845822.680095626041293 ], [ -20037508.342789243906736, -5845822.680095626041293 ] ] ] } },
{ "type": "Feature", "properties": { }, "geometry": { "type": "Polygon", "coordinates": [ [ [ -20037508.342789243906736, -5802483.160709925927222 ], [ -20037508.342789243906736, -5759316.674891650676727 ], [ -19885613.617152310907841, -5759316.674891650676727 ], [ -19885613.617152310907841, -5802483.160709925927222 ], [ -20037508.342789243906736, -5802483.160709925927222 ] ] ] } },
{ "type": "Feature", "properties": { }, "geometry": { "type": "Polygon", "coordinates": [ [ [ -20037508.342789243906736, -5759316.674891650676727 ], [ -20037508.342789243906736, -5716322.531802141107619 ], [ -19886669.216366, -5716322.531802141107619 ], [ -19886669.216366, -5759316.674891650676727 ], [ -20037508.342789243906736, -5759316.674891650676727 ] ] ] } },
{ "type": "Feature", "properties": { }, "geometry": { "type": "Polygon", "coordinates": [ [ [ -20037508.342789243906736, -5716322.531802141107619 ], [ -20037508.342789243906736, -5673500.043360920622945 ], [ -19887720.601086765527725, -5673500.043360920622945 ], [ -19887720.601086765527725, -5716322.531802141107619 ], [ -20037508.342789243906736, -5716322.531802141107619 ] ] ] } },
{ "type": "Feature", "properties": { }, "geometry": { "type": "Polygon", "coordinates": [ [ [ -20037508.342789243906736, -5673500.043360920622945 ], [ -20037508.342789243906736, -5630848.524234681390226 ], [ -19888767.788141027092934, -5630848.524234681390226 ], [ -19888767.788141027092934, -5673500.043360920622945 ], [ -20037508.342789243906736, -5673500.043360920622945 ] ] ] } },
{ "type": "Feature", "properties": { }, "geometry": { "type": "Polygon", "coordinates": [ [ [ -20037508.342789243906736, -5630848.524234681390226 ], [ -20037508.342789243906736, -5588367.291826317086816 ], [ -19889810.794288016855717, -5588367.291826317086816 ], [ -19889810.794288016855717, -5630848.524234681390226 ], [ -20037508.342789243906736, -5630848.524234681390226 ] ] ] } },
{ "type": "Feature", "properties": { }, "geometry": { "type": "Polygon", "coordinates": [ [ [ -20037508.342789243906736, -5588367.291826317086816 ], [ -20037508.342789243906736, -5546055.666264000348747 ], [ -19890849.636220056563616, -5546055.666264000348747 ], [ -19890849.636220056563616, -5588367.291826317086816 ], [ -20037508.342789243906736, -5588367.291826317086816 ] ] ] } },
{ "type": "Feature", "properties": { }, "geometry": { "type": "Polygon", "coordinates": [ [ [ -20037508.342789243906736, -5546055.666264000348747 ], [ -20037508.342789243906736, -5503912.970390299335122 ], [ -19891884.330562826246023, -5503912.970390299335122 ], [ -19891884.330562826246023, -5546055.666264000348747 ], [ -20037508.342789243906736, -5546055.666264000348747 ] ] ] } },
{ "type": "Feature", "properties": { }, "geometry": { "type": "Polygon", "coordinates": [ [ [ -20037508.342789243906736, -5503912.970390299335122 ], [ -20037508.342789243906736, -5461938.529751342721283 ], [ -19892914.893875632435083, -5461938.529751342721283 ], [ -19892914.893875632435083, -5503912.970390299335122 ], [ -20037508.342789243906736, -5503912.970390299335122 ] ] ] } },
{ "type": "Feature", "properties": { }, "geometry": { "type": "Polygon", "coordinates": [ [ [ -20037508.342789243906736, -5461938.529751342721283 ], [ -20037508.342789243906736, -5420131.672586022876203 ], [ -19893941.342651661485434, -5420131.672586022876203 ], [ -19893941.342651661485434, -5461938.529751342721283 ], [ -20037508.342789243906736, -5461938.529751342721283 ] ] ] } },
{ "type": "Feature", "properties": { }, "geometry": { "type": "Polygon", "coordinates": [ [ [ -20037508.342789243906736, -5420131.672586022876203 ], [ -20037508.342789243906736, -5378491.729815248399973 ], [ -19894963.693318247795105, -5378491.729815248399973 ], [ -19894963.693318247795105, -5420131.672586022876203 ], [ -20037508.342789243906736, -5420131.672586022876203 ] ] ] } },
{ "type": "Feature", "properties": { }, "geometry": { "type": "Polygon", "coordinates": [ [ [ -20037508.342789243906736, -5378491.729815248399973 ], [ -20037508.342789243906736, -5337018.035031232982874 ], [ -19895981.962237149477005, -5337018.035031232982874 ], [ -19895981.962237149477005, -5378491.729815248399973 ], [ -20037508.342789243906736, -5378491.729815248399973 ] ] ] } },
{ "type": "Feature", "properties": { }, "geometry": { "type": "Polygon", "coordinates": [ [ [ -20037508.342789243906736, -5337018.035031232982874 ], [ -20037508.342789243906736, -5295709.924486832693219 ], [ -19896996.165704790502787, -5295709.924486832693219 ], [ -19896996.165704790502787, -5337018.035031232982874 ], [ -20037508.342789243906736, -5337018.035031232982874 ] ] ] } },
{ "type": "Feature", "properties": { }, "geometry": { "type": "Polygon", "coordinates": [ [ [ -20037508.342789243906736, -5295709.924486832693219 ], [ -20037508.342789243906736, -5254566.737084921449423 ], [ -19898006.319952540099621, -5254566.737084921449423 ], [ -19898006.319952540099621, -5295709.924486832693219 ], [ -20037508.342789243906736, -5295709.924486832693219 ] ] ] } },
{ "type": "Feature", "properties": { }, "geometry": { "type": "Polygon", "coordinates": [ [ [ -20037508.342789243906736, -5254566.737084921449423 ], [ -20037508.342789243906736, -5213587.814367813058197 ], [ -19899012.441146954894066, -5213587.814367813058197 ], [ -19899012.441146954894066, -5254566.737084921449423 ], [ -20037508.342789243906736, -5254566.737084921449423 ] ] ] } },
{ "type": "Feature", "properties": { }, "geometry": { "type": "Polygon", "coordinates": [ [ [ -20037508.342789243906736, -5213587.814367813058197 ], [ -20037508.342789243906736, -5172772.500506720505655 ], [ -19900014.545390050858259, -5172772.500506720505655 ], [ -19900014.545390050858259, -5213587.814367813058197 ], [ -20037508.342789243906736, -5213587.814367813058197 ] ] ] } },
{ "type": "Feature", "properties": { }, "geometry": { "type": "Polygon", "coordinates": [ [ [ -20037508.342789243906736, -5172772.500506720505655 ], [ -20037508.342789243906736, -5132120.142291260883212 ], [ -19901012.648719556629658, -5132120.142291260883212 ], [ -19901012.648719556629658, -5172772.500506720505655 ], [ -20037508.342789243906736, -5172772.500506720505655 ] ] ] } },
{ "type": "Feature", "properties": { }, "geometry": { "type": "Polygon", "coordinates": [ [ [ -20037508.342789243906736, -5132120.142291260883212 ], [ -20037508.342789243906736, -5091630.089119003154337 ], [ -19902006.767109166830778, -5091630.089119003154337 ], [ -19902006.767109166830778, -5132120.142291260883212 ], [ -20037508.342789243906736, -5132120.142291260883212 ] ] ] } },
{ "type": "Feature", "properties": { }, "geometry": { "type": "Polygon", "coordinates": [ [ [ -20037508.342789243906736, -5091630.089119003154337 ], [ -20037508.342789243906736, -5051301.69298505410552 ], [ -19902996.916468810290098, -5051301.69298505410552 ], [ -19902996.916468810290098, -5091630.089119003154337 ], [ -20037508.342789243906736, -5091630.089119003154337 ] ] ] } },
{ "type": "Feature", "properties": { }, "geometry": { "type": "Polygon", "coordinates": [ [ [ -20037508.342789243906736, -5051301.69298505410552 ], [ -20037508.342789243906736, -5011134.308471688069403 ], [ -19903983.112644877284765, -5011134.308471688069403 ], [ -19903983.112644877284765, -5051301.69298505410552 ], [ -20037508.342789243906736, -5051301.69298505410552 ] ] ] } },
{ "type": "Feature", "properties": { }, "geometry": { "type": "Polygon", "coordinates": [ [ [ -20037508.342789243906736, -5011134.308471688069403 ], [ -20037508.342789243906736, -4971127.292738017626107 ], [ -19904965.37142051383853, -4971127.292738017626107 ], [ -19904965.37142051383853, -5011134.308471688069403 ], [ -20037508.342789243906736, -5011134.308471688069403 ] ] ] } },
{ "type": "Feature", "properties": { }, "geometry": { "type": "Polygon", "coordinates": [ [ [ -20037508.342789243906736, -4971127.292738017626107 ], [ -20037508.342789243906736, -4931280.005509705282748 ], [ -19905943.708515830338001, -4931280.005509705282748 ], [ -19905943.708515830338001, -4971127.292738017626107 ], [ -20037508.342789243906736, -4971127.292738017626107 ] ] ] } },
{ "type": "Feature", "properties": { }, "geometry": { "type": "Polygon", "coordinates": [ [ [ -20037508.342789243906736, -4931280.005509705282748 ], [ -20037508.342789243906736, -4891591.809068717062473 ], [ -19906918.139588192105293, -4891591.809068717062473 ], [ -19906918.139588192105293, -4931280.005509705282748 ], [ -20037508.342789243906736, -4931280.005509705282748 ] ] ] } },
{ "type": "Feature", "properties": { }, "geometry": { "type": "Polygon", "coordinates": [ [ [ -20037508.342789243906736, -4891591.809068717062473 ], [ -20037508.342789243906736, -4852062.068243116140366 ], [ -19907888.680232435464859, -4852062.068243116140366 ], [ -19907888.680232435464859, -4891591.809068717062473 ], [ -20037508.342789243906736, -4891591.809068717062473 ] ] ] } },
{ "type": "Feature", "properties": { }, "geometry": { "type": "Polygon", "coordinates": [ [ [ -20037508.342789243906736, -4852062.068243116140366 ], [ -20037508.342789243906736, -4812690.150396896526217 ], [ -19908855.345981150865555, -4812690.150396896526217 ], [ -19908855.345981150865555, -4852062.068243116140366 ], [ -20037508.342789243906736, -4852062.068243116140366 ] ] ] } },
{ "type": "Feature", "properties": { }, "geometry": { "type": "Polygon", "coordinates": [ [ [ -20037508.342789243906736, -4812690.150396896526217 ], [ -20037508.342789243906736, -4773475.425419860519469 ], [ -19909818.152304902672768, -4773475.425419860519469 ], [ -19909818.152304902672768, -4812690.150396896526217 ], [ -20037508.342789243906736, -4812690.150396896526217 ] ] ] } },
{ "type": "Feature", "properties": { }, "geometry": { "type": "Polygon", "coordinates": [ [ [ -20037508.342789243906736, -4773475.425419860519469 ], [ -20037508.342789243906736, -4734417.265717533417046 ], [ -19910777.114612489938736, -4734417.265717533417046 ], [ -19910777.114612489938736, -4773475.425419860519469 ], [ -20037508.342789243906736, -4773475.425419860519469 ] ] ] } },
{ "type": "Feature", "properties": { }, "geometry": { "type": "Polygon", "coordinates": [ [ [ -20037508.342789243906736, -4734417.265717533417046 ], [ -20037508.342789243906736, -4695515.046201118268073 ], [ -19911732.24825119972229, -4695515.046201118268073 ], [ -19911732.24825119972229, -4734417.265717533417046 ], [ -20037508.342789243906736, -4734417.265717533417046 ] ] ] } },
{ "type": "Feature", "properties": { }, "geometry": { "type": "Polygon", "coordinates": [ [ [ -20037508.342789243906736, -4695515.046201118268073 ], [ -20037508.342789243906736, -4656768.144277493469417 ], [ -19912683.568507041782141, -4656768.144277493469417 ], [ -19912683.568507041782141, -4695515.046201118268073 ], [ -20037508.342789243906736, -4695515.046201118268073 ] ] ] } },
{ "type": "Feature", "properties": { }, "geometry": { "type": "Polygon", "coordinates": [ [ [ -20037508.342789243906736, -4656768.144277493469417 ], [ -20037508.342789243906736, -4618175.939839247614145 ], [ -19913631.090604986995459, -4618175.939839247614145 ], [ -19913631.090604986995459, -4656768.144277493469417 ], [ -20037508.342789243906736, -4656768.144277493469417 ] ] ] } },
{ "type": "Feature", "properties": { }, "geometry": { "type": "Polygon", "coordinates": [ [ [ -20037508.342789243906736, -4618175.939839247614145 ], [ -20037508.342789243906736, -4579737.815254756249487 ], [ -19914574.829709231853485, -4579737.815254756249487 ], [ -19914574.829709231853485, -4618175.939839247614145 ], [ -20037508.342789243906736, -4618175.939839247614145 ] ] ] } },
{ "type": "Feature", "properties": { }, "geometry": { "type": "Polygon", "coordinates": [ [ [ -20037508.342789243906736, -4579737.815254756249487 ], [ -20037508.342789243906736, -4541453.155358295887709 ], [ -19915514.800923425704241, -4541453.155358295887709 ], [ -19915514.800923425704241, -4579737.815254756249487 ], [ -20037508.342789243906736, -4579737.815254756249487 ] ] ] } },
{ "type": "Feature", "properties": { }, "geometry": { "type": "Polygon", "coordinates": [ [ [ -20037508.342789243906736, -4541453.155358295887709 ], [ -20037508.342789243906736, -4503321.347440201789141 ], [ -19916451.019290916621685, -4503321.347440201789141 ], [ -19916451.019290916621685, -4541453.155358295887709 ], [ -20037508.342789243906736, -4541453.155358295887709 ] ] ] } },
{ "type": "Feature", "properties": { }, "geometry": { "type": "Polygon", "coordinates": [ [ [ -20037508.342789243906736, -4503321.347440201789141 ], [ -20037508.342789243906736, -4465341.781237058341503 ], [ -19917383.499794989824295, -4465341.781237058341503 ], [ -19917383.499794989824295, -4503321.347440201789141 ], [ -20037508.342789243906736, -4503321.347440201789141 ] ] ] } },
{ "type": "Feature", "properties": { }, "geometry": { "type": "Polygon", "coordinates": [ [ [ -20037508.342789243906736, -4465341.781237058341503 ], [ -20037508.342789243906736, -4427513.848921935074031 ], [ -19918312.257359113544226, -4427513.848921935074031 ], [ -19918312.257359113544226, -4465341.781237058341503 ], [ -20037508.342789243906736, -4465341.781237058341503 ] ] ] } },
{ "type": "Feature", "properties": { }, "geometry": { "type": "Polygon", "coordinates": [ [ [ -20037508.342789243906736, -4427513.848921935074031 ], [ -20037508.342789243906736, -4389836.945094658061862 ], [ -19919237.306847169995308, -4389836.945094658061862 ], [ -19919237.306847169995308, -4427513.848921935074031 ], [ -20037508.342789243906736, -4427513.848921935074031 ] ] ] } },
{ "type": "Feature", "properties": { }, "geometry": { "type": "Polygon", "coordinates": [ [ [ -20037508.342789243906736, -4389836.945094658061862 ], [ -20037508.342789243906736, -4352310.466772119514644 ], [ -19920158.663063697516918, -4352310.466772119514644 ], [ -19920158.663063697516918, -4389836.945094658061862 ], [ -20037508.342789243906736, -4389836.945094658061862 ] ] ] } },
{ "type": "Feature", "properties": { }, "geometry": { "type": "Polygon", "coordinates": [ [ [ -20037508.342789243906736, -4352310.466772119514644 ], [ -20037508.342789243906736, -4314933.813378632068634 ], [ -19921076.340754132717848, -4314933.813378632068634 ], [ -19921076.340754132717848, -4352310.466772119514644 ], [ -20037508.342789243906736, -4352310.466772119514644 ] ] ] } },
{ "type": "Feature", "properties": { }, "geometry": { "type": "Polygon", "coordinates": [ [ [ -20037508.342789243906736, -4314933.813378632068634 ], [ -20037508.342789243906736, -4277706.386736311018467 ], [ -19921990.354605030268431, -4277706.386736311018467 ], [ -19921990.354605030268431, -4314933.813378632068634 ], [ -20037508.342789243906736, -4314933.813378632068634 ] ] ] } },
{ "type": "Feature", "properties": { }, "geometry": { "type": "Polygon", "coordinates": [ [ [ -20037508.342789243906736, -4277706.386736311018467 ], [ -20037508.342789243906736, -4240627.591055506840348 ], [ -19922900.719244319945574, -4240627.591055506840348 ], [ -19922900.719244319945574, -4277706.386736311018467 ], [ -20037508.342789243906736, -4277706.386736311018467 ] ] ] } },
{ "type": "Feature", "properties": { }, "geometry": { "type": "Polygon", "coordinates": [ [ [ -20037508.342789243906736, -4240627.591055506840348 ], [ -20037508.342789243906736, -4203696.832925266586244 ], [ -19923807.449241522699594, -4203696.832925266586244 ], [ -19923807.449241522699594, -4240627.591055506840348 ], [ -20037508.342789243906736, -4240627.591055506840348 ] ] ] } },
{ "type": "Feature", "properties": { }, "geometry": { "type": "Polygon", "coordinates": [ [ [ -20037508.342789243906736, -4203696.832925266586244 ], [ -20037508.342789243906736, -4166913.521303837187588 ], [ -19924710.5591079890728, -4166913.521303837187588 ], [ -19924710.5591079890728, -4203696.832925266586244 ], [ -20037508.342789243906736, -4203696.832925266586244 ] ] ] } },
{ "type": "Feature", "properties": { }, "geometry": { "type": "Polygon", "coordinates": [ [ [ -20037508.342789243906736, -4166913.521303837187588 ], [ -20037508.342789243906736, -4130277.067509208340198 ], [ -19925610.063297141343355, -4130277.067509208340198 ], [ -19925610.063297141343355, -4166913.521303837187588 ], [ -20037508.342789243906736, -4166913.521303837187588 ] ] ] } },
{ "type": "Feature", "properties": { }, "geometry": { "type": "Polygon", "coordinates": [ [ [ -20037508.342789243906736, -4130277.067509208340198 ], [ -20037508.342789243906736, -4093786.885209688916802 ], [ -19926505.976204685866833, -4093786.885209688916802 ], [ -19926505.976204685866833, -4130277.067509208340198 ], [ -20037508.342789243906736, -4130277.067509208340198 ] ] ] } },
{ "type": "Feature", "properties": { }, "geometry": { "type": "Polygon", "coordinates": [ [ [ -20037508.342789243906736, -4093786.885209688916802 ], [ -20037508.342789243906736, -4057442.390414524823427 ], [ -19927398.31216886267066, -4057442.390414524823427 ], [ -19927398.31216886267066, -4093786.885209688916802 ], [ -20037508.342789243906736, -4093786.885209688916802 ] ] ] } },
{ "type": "Feature", "properties": { }, "geometry": { "type": "Polygon", "coordinates": [ [ [ -20037508.342789243906736, -4057442.390414524823427 ], [ -20037508.342789243906736, -4021243.001464552246034 ], [ -19928287.085470661520958, -4021243.001464552246034 ], [ -19928287.085470661520958, -4057442.390414524823427 ], [ -20037508.342789243906736, -4057442.390414524823427 ] ] ] } },
{ "type": "Feature", "properties": { }, "geometry": { "type": "Polygon", "coordinates": [ [ [ -20037508.342789243906736, -4021243.001464552246034 ], [ -20037508.342789243906736, -3985188.139022888615727 ], [ -19929172.310334056615829, -3985188.139022888615727 ], [ -19929172.310334056615829, -4021243.001464552246034 ], [ -20037508.342789243906736, -4021243.001464552246034 ] ] ] } },
{ "type": "Feature", "properties": { }, "geometry": { "type": "Polygon", "coordinates": [ [ [ -20037508.342789243906736, -3985188.139022888615727 ], [ -20037508.342789243906736, -3949277.226065661758184 ], [ -19930054.000926226377487, -3949277.226065661758184 ], [ -19930054.000926226377487, -3985188.139022888615727 ], [ -20037508.342789243906736, -3985188.139022888615727 ] ] ] } },
{ "type": "Feature", "properties": { }, "geometry": { "type": "Polygon", "coordinates": [ [ [ -20037508.342789243906736, -3949277.226065661758184 ], [ -20037508.342789243906736, -3913509.687872773036361 ], [ -19930932.171357803046703, -3913509.687872773036361 ], [ -19930932.171357803046703, -3949277.226065661758184 ], [ -20037508.342789243906736, -3949277.226065661758184 ] ] ] } },
{ "type": "Feature", "properties": { }, "geometry": { "type": "Polygon", "coordinates": [ [ [ -20037508.342789243906736, -3913509.687872773036361 ], [ -20037508.342789243906736, -3877884.952018702402711 ], [ -19931806.835683058947325, -3877884.952018702402711 ], [ -19931806.835683058947325, -3913509.687872773036361 ], [ -20037508.342789243906736, -3913509.687872773036361 ] ] ] } },
{ "type": "Feature", "properties": { }, "geometry": { "type": "Polygon", "coordinates": [ [ [ -20037508.342789243906736, -3877884.952018702402711 ], [ -20037508.342789243906736, -3842402.448363344650716 ], [ -19932678.007900178432465, -3842402.448363344650716 ], [ -19932678.007900178432465, -3877884.952018702402711 ], [ -20037508.342789243906736, -3877884.952018702402711 ] ] ] } },
{ "type": "Feature", "properties": { }, "geometry": { "type": "Polygon", "coordinates": [ [ [ -20037508.342789243906736, -3842402.448363344650716 ], [ -20037508.342789243906736, -3807061.609042886644602 ], [ -19933545.701951436698437, -3807061.609042886644602 ], [ -19933545.701951436698437, -3842402.448363344650716 ], [ -20037508.342789243906736, -3842402.448363344650716 ] ] ] } },
{ "type": "Feature", "properties": { }, "geometry": { "type": "Polygon", "coordinates": [ [ [ -20037508.342789243906736, -3807061.609042886644602 ], [ -20037508.342789243906736, -3771861.868460718076676 ], [ -19934409.931723464280367, -3771861.868460718076676 ], [ -19934409.931723464280367, -3807061.609042886644602 ], [ -20037508.342789243906736, -3807061.609042886644602 ] ] ] } },
{ "type": "Feature", "properties": { }, "geometry": { "type": "Polygon", "coordinates": [ [ [ -20037508.342789243906736, -3771861.868460718076676 ], [ -20037508.342789243906736, -3736802.663278380874544 ], [ -19935270.711047429591417, -3736802.663278380874544 ], [ -19935270.711047429591417, -3771861.868460718076676 ], [ -20037508.342789243906736, -3771861.868460718076676 ] ] ] } },
{ "type": "Feature", "properties": { }, "geometry": { "type": "Polygon", "coordinates": [ [ [ -20037508.342789243906736, -3736802.663278380874544 ], [ -20037508.342789243906736, -3701883.432406552135944 ], [ -19936128.053699292242527, -3701883.432406552135944 ], [ -19936128.053699292242527, -3736802.663278380874544 ], [ -20037508.342789243906736, -3736802.663278380874544 ] ] ] } },
{ "type": "Feature", "properties": { }, "geometry": { "type": "Polygon", "coordinates": [ [ [ -20037508.342789243906736, -3701883.432406552135944 ], [ -20037508.342789243906736, -3667103.616996064782143 ], [ -19936981.973400007933378, -3667103.616996064782143 ], [ -19936981.973400007933378, -3701883.432406552135944 ], [ -20037508.342789243906736, -3701883.432406552135944 ] ] ] } },
{ "type": "Feature", "properties": { }, "geometry": { "type": "Polygon", "coordinates": [ [ [ -20037508.342789243906736, -3667103.616996064782143 ], [ -20037508.342789243906736, -3632462.660428964532912 ], [ -19937832.483815755695105, -3632462.660428964532912 ], [ -19937832.483815755695105, -3667103.616996064782143 ], [ -20037508.342789243906736, -3667103.616996064782143 ] ] ] } },
{ "type": "Feature", "properties": { }, "geometry": { "type": "Polygon", "coordinates": [ [ [ -20037508.342789243906736, -3632462.660428964532912 ], [ -20037508.342789243906736, -3597960.008309600874782 ], [ -19938679.598558142781258, -3597960.008309600874782 ], [ -19938679.598558142781258, -3632462.660428964532912 ], [ -20037508.342789243906736, -3632462.660428964532912 ] ] ] } },
{ "type": "Feature", "properties": { }, "geometry": { "type": "Polygon", "coordinates": [ [ [ -20037508.342789243906736, -3597960.008309600874782 ], [ -20037508.342789243906736, -3563595.108455754816532 ], [ -19939523.331184439361095, -3563595.108455754816532 ], [ -19939523.331184439361095, -3597960.008309600874782 ], [ -20037508.342789243906736, -3597960.008309600874782 ] ] ] } },
{ "type": "Feature", "properties": { }, "geometry": { "type": "Polygon", "coordinates": [ [ [ -20037508.342789243906736, -3563595.108455754816532 ], [ -20037508.342789243906736, -3529367.410889802034944 ], [ -19940363.695197783410549, -3529367.410889802034944 ], [ -19940363.695197783410549, -3563595.108455754816532 ], [ -20037508.342789243906736, -3563595.108455754816532 ] ] ] } },
{ "type": "Feature", "properties": { }, "geometry": { "type": "Polygon", "coordinates": [ [ [ -20037508.342789243906736, -3529367.410889802034944 ], [ -20037508.342789243906736, -3495276.367829910479486 ], [ -19941200.704047407954931, -3495276.367829910479486 ], [ -19941200.704047407954931, -3529367.410889802034944 ], [ -20037508.342789243906736, -3529367.410889802034944 ] ] ] } },
{ "type": "Feature", "properties": { }, "geometry": { "type": "Polygon", "coordinates": [ [ [ -20037508.342789243906736, -3495276.367829910479486 ], [ -20037508.342789243906736, -3461321.433681273367256 ], [ -19942034.371128842234612, -3461321.433681273367256 ], [ -19942034.371128842234612, -3495276.367829910479486 ], [ -20037508.342789243906736, -3495276.367829910479486 ] ] ] } },
{ "type": "Feature", "properties": { }, "geometry": { "type": "Polygon", "coordinates": [ [ [ -20037508.342789243906736, -3461321.433681273367256 ], [ -20037508.342789243906736, -3427502.065027378499508 ], [ -19942864.709784135222435, -3427502.065027378499508 ], [ -19942864.709784135222435, -3461321.433681273367256 ], [ -20037508.342789243906736, -3461321.433681273367256 ] ] ] } },
{ "type": "Feature", "properties": { }, "geometry": { "type": "Polygon", "coordinates": [ [ [ -20037508.342789243906736, -3427502.065027378499508 ], [ -20037508.342789243906736, -3393817.720621310640126 ], [ -19943691.73330207541585, -3393817.720621310640126 ], [ -19943691.73330207541585, -3427502.065027378499508 ], [ -20037508.342789243906736, -3427502.065027378499508 ] ] ] } },
{ "type": "Feature", "properties": { }, "geometry": { "type": "Polygon", "coordinates": [ [ [ -20037508.342789243906736, -3393817.720621310640126 ], [ -20037508.342789243906736, -3360267.86137708928436 ], [ -19944515.454918388277292, -3360267.86137708928436 ], [ -19944515.454918388277292, -3393817.720621310640126 ], [ -20037508.342789243906736, -3393817.720621310640126 ] ] ] } },
{ "type": "Feature", "properties": { }, "geometry": { "type": "Polygon", "coordinates": [ [ [ -20037508.342789243906736, -3360267.86137708928436 ], [ -20037508.342789243906736, -3326851.950361041817814 ], [ -19945335.887815952301025, -3326851.950361041817814 ], [ -19945335.887815952301025, -3360267.86137708928436 ], [ -20037508.342789243906736, -3360267.86137708928436 ] ] ] } },
{ "type": "Feature", "properties": { }, "geometry": { "type": "Polygon", "coordinates": [ [ [ -20037508.342789243906736, -3326851.950361041817814 ], [ -20037508.342789243906736, -3293569.452783210203052 ], [ -19946153.045125022530556, -3293569.452783210203052 ], [ -19946153.045125022530556, -3326851.950361041817814 ], [ -20037508.342789243906736, -3326851.950361041817814 ] ] ] } },
{ "type": "Feature", "properties": { }, "geometry": { "type": "Polygon", "coordinates": [ [ [ -20037508.342789243906736, -3293569.452783210203052 ], [ -20037508.342789243906736, -3260419.835988791193813 ], [ -19946966.93992342799902, -3260419.835988791193813 ], [ -19946966.93992342799902, -3293569.452783210203052 ], [ -20037508.342789243906736, -3293569.452783210203052 ] ] ] } },
{ "type": "Feature", "properties": { }, "geometry": { "type": "Polygon", "coordinates": [ [ [ -20037508.342789243906736, -3260419.835988791193813 ], [ -20037508.342789243906736, -3227402.569449612405151 ], [ -19947777.585236772894859, -3227402.569449612405151 ], [ -19947777.585236772894859, -3260419.835988791193813 ], [ -20037508.342789243906736, -3260419.835988791193813 ] ] ] } },
{ "type": "Feature", "properties": { }, "geometry": { "type": "Polygon", "coordinates": [ [ [ -20037508.342789243906736, -3227402.569449612405151 ], [ -20037508.342789243906736, -3194517.124755642842501 ], [ -19948584.994038678705692, -3194517.124755642842501 ], [ -19948584.994038678705692, -3227402.569449612405151 ], [ -20037508.342789243906736, -3227402.569449612405151 ] ] ] } },
{ "type": "Feature", "properties": { }, "geometry": { "type": "Polygon", "coordinates": [ [ [ -20037508.342789243906736, -3194517.124755642842501 ], [ -20037508.342789243906736, -3161762.975606533698738 ], [ -19949389.179250951856375, -3161762.975606533698738 ], [ -19949389.179250951856375, -3194517.124755642842501 ], [ -20037508.342789243906736, -3194517.124755642842501 ] ] ] } },
{ "type": "Feature", "properties": { }, "geometry": { "type": "Polygon", "coordinates": [ [ [ -20037508.342789243906736, -3161762.975606533698738 ], [ -20037508.342789243906736, -3129139.597803197801113 ], [ -19950190.15374381095171, -3129139.597803197801113 ], [ -19950190.15374381095171, -3161762.975606533698738 ], [ -20037508.342789243906736, -3161762.975606533698738 ] ] ] } },
{ "type": "Feature", "properties": { }, "geometry": { "type": "Polygon", "coordinates": [ [ [ -20037508.342789243906736, -3129139.597803197801113 ], [ -20037508.342789243906736, -3096646.469239418860525 ], [ -19950987.930336099117994, -3096646.469239418860525 ], [ -19950987.930336099117994, -3129139.597803197801113 ], [ -20037508.342789243906736, -3129139.597803197801113 ] ] ] } },
{ "type": "Feature", "properties": { }, "geometry": { "type": "Polygon", "coordinates": [ [ [ -20037508.342789243906736, -3096646.469239418860525 ], [ -20037508.342789243906736, -3064283.069893496576697 ], [ -19951782.521795470267534, -3064283.069893496576697 ], [ -19951782.521795470267534, -3096646.469239418860525 ], [ -20037508.342789243906736, -3096646.469239418860525 ] ] ] } },
{ "type": "Feature", "properties": { }, "geometry": { "type": "Polygon", "coordinates": [ [ [ -20037508.342789243906736, -3064283.069893496576697 ], [ -20037508.342789243906736, -3032048.881819923408329 ], [ -19952573.940838605165482, -3032048.881819923408329 ], [ -19952573.940838605165482, -3064283.069893496576697 ], [ -20037508.342789243906736, -3064283.069893496576697 ] ] ] } },
{ "type": "Feature", "properties": { }, "geometry": { "type": "Polygon", "coordinates": [ [ [ -20037508.342789243906736, -3032048.881819923408329 ], [ -20037508.342789243906736, -2999943.389141095336527 ], [ -19953362.200131420046091, -2999943.389141095336527 ], [ -19953362.200131420046091, -3032048.881819923408329 ], [ -20037508.342789243906736, -3032048.881819923408329 ] ] ] } },
{ "type": "Feature", "properties": { }, "geometry": { "type": "Polygon", "coordinates": [ [ [ -20037508.342789243906736, -2999943.389141095336527 ], [ -20037508.342789243906736, -2967966.078039056621492 ], [ -19954147.312289256602526, -2967966.078039056621492 ], [ -19954147.312289256602526, -2999943.389141095336527 ], [ -20037508.342789243906736, -2999943.389141095336527 ] ] ] } },
{ "type": "Feature", "properties": { }, "geometry": { "type": "Polygon", "coordinates": [ [ [ -20037508.342789243906736, -2967966.078039056621492 ], [ -20037508.342789243906736, -2936116.436747275292873 ], [ -19954929.289877083152533, -2936116.436747275292873 ], [ -19954929.289877083152533, -2967966.078039056621492 ], [ -20037508.342789243906736, -2967966.078039056621492 ] ] ] } },
{ "type": "Feature", "properties": { }, "geometry": { "type": "Polygon", "coordinates": [ [ [ -20037508.342789243906736, -2936116.436747275292873 ], [ -20037508.342789243906736, -2904393.955542454961687 ], [ -19955708.145409718155861, -2904393.955542454961687 ], [ -19955708.145409718155861, -2936116.436747275292873 ], [ -20037508.342789243906736, -2936116.436747275292873 ] ] ] } },
{ "type": "Feature", "properties": { }, "geometry": { "type": "Polygon", "coordinates": [ [ [ -20037508.342789243906736, -2904393.955542454961687 ], [ -20037508.342789243906736, -2872798.126736374106258 ], [ -19956483.891352001577616, -2872798.126736374106258 ], [ -19956483.891352001577616, -2904393.955542454961687 ], [ -20037508.342789243906736, -2904393.955542454961687 ] ] ] } },
{ "type": "Feature", "properties": { }, "geometry": { "type": "Polygon", "coordinates": [ [ [ -20037508.342789243906736, -2872798.126736374106258 ], [ -20037508.342789243906736, -2841328.444667764473706 ], [ -19957256.540119007229805, -2841328.444667764473706 ], [ -19957256.540119007229805, -2872798.126736374106258 ], [ -20037508.342789243906736, -2872798.126736374106258 ] ] ] } },
{ "type": "Feature", "properties": { }, "geometry": { "type": "Polygon", "coordinates": [ [ [ 19833463.211238689720631, -7935063.147595597431064 ], [ 19833463.211238689720631, -7883382.30979142524302 ], [ 20037508.342789243906736, -7883382.30979142524302 ], [ 20037508.342789243906736, -7935063.147595597431064 ], [ 19833463.211238689720631, -7935063.147595597431064 ] ] ] } },
{ "type": "Feature", "properties": { }, "geometry": { "type": "Polygon", "coordinates": [ [ [ 19834727.021593291312456, -7883382.30979142524302 ], [ 19834727.021593291312456, -7831907.808371677994728 ], [ 20037508.342789243906736, -7831907.808371677994728 ], [ 20037508.342789243906736, -7883382.30979142524302 ], [ 19834727.021593291312456, -7883382.30979142524302 ] ] ] } },
{ "type": "Feature", "properties": { }, "geometry": { "type": "Polygon", "coordinates": [ [ [ 19835985.786169417202473, -7831907.808371677994728 ], [ 19835985.786169417202473, -7780638.819535788148642 ], [ 20037508.342789243906736, -7780638.819535788148642 ], [ 20037508.342789243906736, -7831907.808371677994728 ], [ 19835985.786169417202473, -7831907.808371677994728 ] ] ] } },
{ "type": "Feature", "properties": { }, "geometry": { "type": "Polygon", "coordinates": [ [ [ 19837239.525112394243479, -7780638.819535788148642 ], [ 19837239.525112394243479, -7729574.522772220894694 ], [ 20037508.342789243906736, -7729574.522772220894694 ], [ 20037508.342789243906736, -7780638.819535788148642 ], [ 19837239.525112394243479, -7780638.819535788148642 ] ] ] } },
{ "type": "Feature", "properties": { }, "geometry": { "type": "Polygon", "coordinates": [ [ [ 19838488.25848712772131, -7729574.522772220894694 ], [ 19838488.25848712772131, -7678714.100845344364643 ], [ 20037508.342789243906736, -7678714.100845344364643 ], [ 20037508.342789243906736, -7729574.522772220894694 ], [ 19838488.25848712772131, -7729574.522772220894694 ] ] ] } },
{ "type": "Feature", "properties": { }, "geometry": { "type": "Polygon", "coordinates": [ [ [ 19839732.006278410553932, -7678714.100845344364643 ], [ 19839732.006278410553932, -7628056.739782351069152 ], [ 20037508.342789243906736, -7628056.739782351069152 ], [ 20037508.342789243906736, -7678714.100845344364643 ], [ 19839732.006278410553932, -7678714.100845344364643 ] ] ] } },
{ "type": "Feature", "properties": { }, "geometry": { "type": "Polygon", "coordinates": [ [ [ 19840970.788391247391701, -7628056.739782351069152 ], [ 19840970.788391247391701, -7577601.628860229626298 ], [ 20037508.342789243906736, -7577601.628860229626298 ], [ 20037508.342789243906736, -7628056.739782351069152 ], [ 19840970.788391247391701, -7628056.739782351069152 ] ] ] } },
{ "type": "Feature", "properties": { }, "geometry": { "type": "Polygon", "coordinates": [ [ [ 19842204.624651171267033, -7577601.628860229626298 ], [ 19842204.624651171267033, -7527347.960592788644135 ], [ 20037508.342789243906736, -7527347.960592788644135 ], [ 20037508.342789243906736, -7577601.628860229626298 ], [ 19842204.624651171267033, -7577601.628860229626298 ] ] ] } },
{ "type": "Feature", "properties": { }, "geometry": { "type": "Polygon", "coordinates": [ [ [ 19843433.534804556518793, -7527347.960592788644135 ], [ 19843433.534804556518793, -7477294.930717738345265 ], [ 20037508.342789243906736, -7477294.930717738345265 ], [ 20037508.342789243906736, -7527347.960592788644135 ], [ 19843433.534804556518793, -7527347.960592788644135 ] ] ] } },
{ "type": "Feature", "properties": { }, "geometry": { "type": "Polygon", "coordinates": [ [ [ 19844657.538518954068422, -7477294.930717738345265 ], [ 19844657.538518954068422, -7427441.738183813169599 ], [ 20037508.342789243906736, -7427441.738183813169599 ], [ 20037508.342789243906736, -7477294.930717738345265 ], [ 19844657.538518954068422, -7477294.930717738345265 ] ] ] } },
{ "type": "Feature", "properties": { }, "geometry": { "type": "Polygon", "coordinates": [ [ [ 19845876.655383370816708, -7427441.738183813169599 ], [ 19845876.655383370816708, -7377787.585137956775725 ], [ 20037508.342789243906736, -7377787.585137956775725 ], [ 20037508.342789243906736, -7427441.738183813169599 ], [ 19845876.655383370816708, -7427441.738183813169599 ] ] ] } },
{ "type": "Feature", "properties": { }, "geometry": { "type": "Polygon", "coordinates": [ [ [ 19847090.904908623546362, -7377787.585137956775725 ], [ 19847090.904908623546362, -7328331.676912548951805 ], [ 20037508.342789243906736, -7328331.676912548951805 ], [ 20037508.342789243906736, -7377787.585137956775725 ], [ 19847090.904908623546362, -7377787.585137956775725 ] ] ] } },
{ "type": "Feature", "properties": { }, "geometry": { "type": "Polygon", "coordinates": [ [ [ 19848300.306527622044086, -7328331.676912548951805 ], [ 19848300.306527622044086, -7279073.222012692131102 ], [ 20037508.342789243906736, -7279073.222012692131102 ], [ 20037508.342789243906736, -7328331.676912548951805 ], [ 19848300.306527622044086, -7328331.676912548951805 ] ] ] } },
{ "type": "Feature", "properties": { }, "geometry": { "type": "Polygon", "coordinates": [ [ [ 19849504.879595689475536, -7279073.222012692131102 ], [ 19849504.879595689475536, -7230011.432103540748358 ], [ 20037508.342789243906736, -7230011.432103540748358 ], [ 20037508.342789243906736, -7279073.222012692131102 ], [ 19849504.879595689475536, -7279073.222012692131102 ] ] ] } },
{ "type": "Feature", "properties": { }, "geometry": { "type": "Polygon", "coordinates": [ [ [ 19850704.643390879034996, -7230011.432103540748358 ], [ 19850704.643390879034996, -7181145.521997685544193 ], [ 20037508.342789243906736, -7181145.521997685544193 ], [ 20037508.342789243906736, -7230011.432103540748358 ], [ 19850704.643390879034996, -7230011.432103540748358 ] ] ] } },
{ "type": "Feature", "properties": { }, "geometry": { "type": "Polygon", "coordinates": [ [ [ 19851899.617114271968603, -7181145.521997685544193 ], [ 19851899.617114271968603, -7132474.709642588160932 ], [ 20037508.342789243906736, -7132474.709642588160932 ], [ 20037508.342789243906736, -7181145.521997685544193 ], [ 19851899.617114271968603, -7181145.521997685544193 ] ] ] } },
{ "type": "Feature", "properties": { }, "geometry": { "type": "Polygon", "coordinates": [ [ [ 19853089.819890283048153, -7132474.709642588160932 ], [ 19853089.819890283048153, -7083998.216108064167202 ], [ 20037508.342789243906736, -7083998.216108064167202 ], [ 20037508.342789243906736, -7132474.709642588160932 ], [ 19853089.819890283048153, -7132474.709642588160932 ] ] ] } },
{ "type": "Feature", "properties": { }, "geometry": { "type": "Polygon", "coordinates": [ [ [ 19854275.270766988396645, -7083998.216108064167202 ], [ 19854275.270766988396645, -7035715.265573818236589 ], [ 20037508.342789243906736, -7035715.265573818236589 ], [ 20037508.342789243906736, -7083998.216108064167202 ], [ 19854275.270766988396645, -7083998.216108064167202 ] ] ] } },
{ "type": "Feature", "properties": { }, "geometry": { "type": "Polygon", "coordinates": [ [ [ 19855455.988716397434473, -7035715.265573818236589 ], [ 19855455.988716397434473, -6987625.085317026823759 ], [ 20037508.342789243906736, -6987625.085317026823759 ], [ 20037508.342789243906736, -7035715.265573818236589 ], [ 19855455.988716397434473, -7035715.265573818236589 ] ] ] } },
{ "type": "Feature", "properties": { }, "geometry": { "type": "Polygon", "coordinates": [ [ [ 19856631.992634784430265, -6987625.085317026823759 ], [ 19856631.992634784430265, -6939726.905699972063303 ], [ 20037508.342789243906736, -6939726.905699972063303 ], [ 20037508.342789243906736, -6987625.085317026823759 ], [ 19856631.992634784430265, -6987625.085317026823759 ] ] ] } },
{ "type": "Feature", "properties": { }, "geometry": { "type": "Polygon", "coordinates": [ [ [ 19857803.301342975348234, -6939726.905699972063303 ], [ 19857803.301342975348234, -6892019.960157724097371 ], [ 20037508.342789243906736, -6892019.960157724097371 ], [ 20037508.342789243906736, -6939726.905699972063303 ], [ 19857803.301342975348234, -6939726.905699972063303 ] ] ] } },
{ "type": "Feature", "properties": { }, "geometry": { "type": "Polygon", "coordinates": [ [ [ 19858969.933586657047272, -6892019.960157724097371 ], [ 19858969.933586657047272, -6844503.485185872763395 ], [ 20037508.342789243906736, -6844503.485185872763395 ], [ 20037508.342789243906736, -6892019.960157724097371 ], [ 19858969.933586657047272, -6892019.960157724097371 ] ] ] } },
{ "type": "Feature", "properties": { }, "geometry": { "type": "Polygon", "coordinates": [ [ [ 19860131.908036667853594, -6844503.485185872763395 ], [ 19860131.908036667853594, -6797176.720328309573233 ], [ 20037508.342789243906736, -6797176.720328309573233 ], [ 20037508.342789243906736, -6844503.485185872763395 ], [ 19860131.908036667853594, -6844503.485185872763395 ] ] ] } },
{ "type": "Feature", "properties": { }, "geometry": { "type": "Polygon", "coordinates": [ [ [ 19861289.243289306759834, -6797176.720328309573233 ], [ 19861289.243289306759834, -6750038.908165054395795 ], [ 20037508.342789243906736, -6750038.908165054395795 ], [ 20037508.342789243906736, -6797176.720328309573233 ], [ 19861289.243289306759834, -6797176.720328309573233 ] ] ] } },
{ "type": "Feature", "properties": { }, "geometry": { "type": "Polygon", "coordinates": [ [ [ 19862441.957866631448269, -6750038.908165054395795 ], [ 19862441.957866631448269, -6703089.294300138019025 ], [ 20037508.342789243906736, -6703089.294300138019025 ], [ 20037508.342789243906736, -6750038.908165054395795 ], [ 19862441.957866631448269, -6750038.908165054395795 ] ] ] } },
{ "type": "Feature", "properties": { }, "geometry": { "type": "Polygon", "coordinates": [ [ [ 19863590.070216745138168, -6703089.294300138019025 ], [ 19863590.070216745138168, -6656327.127349525690079 ], [ 20037508.342789243906736, -6656327.127349525690079 ], [ 20037508.342789243906736, -6703089.294300138019025 ], [ 19863590.070216745138168, -6703089.294300138019025 ] ] ] } },
{ "type": "Feature", "properties": { }, "geometry": { "type": "Polygon", "coordinates": [ [ [ 19864733.598714090883732, -6656327.127349525690079 ], [ 19864733.598714090883732, -6609751.658929092809558 ], [ 20037508.342789243906736, -6609751.658929092809558 ], [ 20037508.342789243906736, -6656327.127349525690079 ], [ 19864733.598714090883732, -6656327.127349525690079 ] ] ] } },
{ "type": "Feature", "properties": { }, "geometry": { "type": "Polygon", "coordinates": [ [ [ 19865872.561659760773182, -6609751.658929092809558 ], [ 19865872.561659760773182, -6563362.143642647191882 ], [ 20037508.342789243906736, -6563362.143642647191882 ], [ 20037508.342789243906736, -6609751.658929092809558 ], [ 19865872.561659760773182, -6609751.658929092809558 ] ] ] } },
{ "type": "Feature", "properties": { }, "geometry": { "type": "Polygon", "coordinates": [ [ [ 19867006.977281779050827, -6563362.143642647191882 ], [ 19867006.977281779050827, -6517157.839069999754429 ], [ 20037508.342789243906736, -6517157.839069999754429 ], [ 20037508.342789243906736, -6563362.143642647191882 ], [ 19867006.977281779050827, -6563362.143642647191882 ] ] ] } },
{ "type": "Feature", "properties": { }, "geometry": { "type": "Polygon", "coordinates": [ [ [ 19868136.863735388964415, -6517157.839069999754429 ], [ 19868136.863735388964415, -6471138.005755084566772 ], [ 20037508.342789243906736, -6471138.005755084566772 ], [ 20037508.342789243906736, -6517157.839069999754429 ], [ 19868136.863735388964415, -6517157.839069999754429 ] ] ] } },
{ "type": "Feature", "properties": { }, "geometry": { "type": "Polygon", "coordinates": [ [ [ 19869262.239103350788355, -6471138.005755084566772 ], [ 19869262.239103350788355, -6425301.907194122672081 ], [ 20037508.342789243906736, -6425301.907194122672081 ], [ 20037508.342789243906736, -6471138.005755084566772 ], [ 19869262.239103350788355, -6471138.005755084566772 ] ] ] } },
{ "type": "Feature", "properties": { }, "geometry": { "type": "Polygon", "coordinates": [ [ [ 19870383.121396228671074, -6425301.907194122672081 ], [ 19870383.121396228671074, -6379648.809823834337294 ], [ 20037508.342789243906736, -6379648.809823834337294 ], [ 20037508.342789243906736, -6425301.907194122672081 ], [ 19870383.121396228671074, -6425301.907194122672081 ] ] ] } },
{ "type": "Feature", "properties": { }, "geometry": { "type": "Polygon", "coordinates": [ [ [ 19871499.528552684932947, -6379648.809823834337294 ], [ 19871499.528552684932947, -6334177.983009702526033 ], [ 20037508.342789243906736, -6334177.983009702526033 ], [ 20037508.342789243906736, -6379648.809823834337294 ], [ 19871499.528552684932947, -6379648.809823834337294 ] ] ] } },
{ "type": "Feature", "properties": { }, "geometry": { "type": "Polygon", "coordinates": [ [ [ 19872611.478439755737782, -6334177.983009702526033 ], [ 19872611.478439755737782, -6288888.699034276418388 ], [ 20037508.342789243906736, -6288888.699034276418388 ], [ 20037508.342789243906736, -6334177.983009702526033 ], [ 19872611.478439755737782, -6334177.983009702526033 ] ] ] } },
{ "type": "Feature", "properties": { }, "geometry": { "type": "Polygon", "coordinates": [ [ [ 19873718.988853141665459, -6288888.699034276418388 ], [ 19873718.988853141665459, -6243780.233085525222123 ], [ 20037508.342789243906736, -6243780.233085525222123 ], [ 20037508.342789243906736, -6288888.699034276418388 ], [ 19873718.988853141665459, -6288888.699034276418388 ] ] ] } },
{ "type": "Feature", "properties": { }, "geometry": { "type": "Polygon", "coordinates": [ [ [ 19874822.077517498284578, -6243780.233085525222123 ], [ 19874822.077517498284578, -6198851.863245240412652 ], [ 20037508.342789243906736, -6198851.863245240412652 ], [ 20037508.342789243906736, -6243780.233085525222123 ], [ 19874822.077517498284578, -6243780.233085525222123 ] ] ] } },
{ "type": "Feature", "properties": { }, "geometry": { "type": "Polygon", "coordinates": [ [ [ 19875920.762086715549231, -6198851.863245240412652 ], [ 19875920.762086715549231, -6154102.870477480813861 ], [ 20037508.342789243906736, -6154102.870477480813861 ], [ 20037508.342789243906736, -6198851.863245240412652 ], [ 19875920.762086715549231, -6198851.863245240412652 ] ] ] } },
{ "type": "Feature", "properties": { }, "geometry": { "type": "Polygon", "coordinates": [ [ [ 19877015.060144193470478, -6154102.870477480813861 ], [ 19877015.060144193470478, -6109532.538617064245045 ], [ 20037508.342789243906736, -6109532.538617064245045 ], [ 20037508.342789243906736, -6154102.870477480813861 ], [ 19877015.060144193470478, -6154102.870477480813861 ] ] ] } },
{ "type": "Feature", "properties": { }, "geometry": { "type": "Polygon", "coordinates": [ [ [ 19878104.989203132688999, -6109532.538617064245045 ], [ 19878104.989203132688999, -6065140.154358107596636 ], [ 20037508.342789243906736, -6065140.154358107596636 ], [ 20037508.342789243906736, -6109532.538617064245045 ], [ 19878104.989203132688999, -6109532.538617064245045 ] ] ] } },
{ "type": "Feature", "properties": { }, "geometry": { "type": "Polygon", "coordinates": [ [ [ 19879190.566706821322441, -6065140.154358107596636 ], [ 19879190.566706821322441, -6020925.007242609746754 ], [ 20037508.342789243906736, -6020925.007242609746754 ], [ 20037508.342789243906736, -6065140.154358107596636 ], [ 19879190.566706821322441, -6065140.154358107596636 ] ] ] } },
{ "type": "Feature", "properties": { }, "geometry": { "type": "Polygon", "coordinates": [ [ [ 19880271.81002889201045, -6020925.007242609746754 ], [ 19880271.81002889201045, -5976886.389649082906544 ], [ 20037508.342789243906736, -5976886.389649082906544 ], [ 20037508.342789243906736, -6020925.007242609746754 ], [ 19880271.81002889201045, -6020925.007242609746754 ] ] ] } },
{ "type": "Feature", "properties": { }, "geometry": { "type": "Polygon", "coordinates": [ [ [ 19881348.736473623663187, -5976886.389649082906544 ], [ 19881348.736473623663187, -5933023.596781226806343 ], [ 20037508.342789243906736, -5933023.596781226806343 ], [ 20037508.342789243906736, -5976886.389649082906544 ], [ 19881348.736473623663187, -5976886.389649082906544 ] ] ] } },
{ "type": "Feature", "properties": { }, "geometry": { "type": "Polygon", "coordinates": [ [ [ 19882421.363276194781065, -5933023.596781226806343 ], [ 19882421.363276194781065, -5889335.926656647585332 ], [ 20037508.342789243906736, -5889335.926656647585332 ], [ 20037508.342789243906736, -5933023.596781226806343 ], [ 19882421.363276194781065, -5933023.596781226806343 ] ] ] } },
{ "type": "Feature", "properties": { }, "geometry": { "type": "Polygon", "coordinates": [ [ [ 19883489.707602985203266, -5889335.926656647585332 ], [ 19883489.707602985203266, -5845822.680095626041293 ], [ 20037508.342789243906736, -5845822.680095626041293 ], [ 20037508.342789243906736, -5889335.926656647585332 ], [ 19883489.707602985203266, -5889335.926656647585332 ] ] ] } },
{ "type": "Feature", "properties": { }, "geometry": { "type": "Polygon", "coordinates": [ [ [ 19884553.786551833152771, -5845822.680095626041293 ], [ 19884553.786551833152771, -5802483.160709925927222 ], [ 20037508.342789243906736, -5802483.160709925927222 ], [ 20037508.342789243906736, -5845822.680095626041293 ], [ 19884553.786551833152771, -5845822.680095626041293 ] ] ] } },
{ "type": "Feature", "properties": { }, "geometry": { "type": "Polygon", "coordinates": [ [ [ 19885613.617152310907841, -5802483.160709925927222 ], [ 19885613.617152310907841, -5759316.674891650676727 ], [ 20037508.342789243906736, -5759316.674891650676727 ], [ 20037508.342789243906736, -5802483.160709925927222 ], [ 19885613.617152310907841, -5802483.160709925927222 ] ] ] } },
{ "type": "Feature", "properties": { }, "geometry": { "type": "Polygon", "coordinates": [ [ [ 19886669.216366, -5759316.674891650676727 ], [ 19886669.216366, -5716322.531802141107619 ], [ 20037508.342789243906736, -5716322.531802141107619 ], [ 20037508.342789243906736, -5759316.674891650676727 ], [ 19886669.216366, -5759316.674891650676727 ] ] ] } },
{ "type": "Feature", "properties": { }, "geometry": { "type": "Polygon", "coordinates": [ [ [ 19887720.601086765527725, -5716322.531802141107619 ], [ 19887720.601086765527725, -5673500.043360920622945 ], [ 20037508.342789243906736, -5673500.043360920622945 ], [ 20037508.342789243906736, -5716322.531802141107619 ], [ 19887720.601086765527725, -5716322.531802141107619 ] ] ] } },
{ "type": "Feature", "properties": { }, "geometry": { "type": "Polygon", "coordinates": [ [ [ 19888767.788141027092934, -5673500.043360920622945 ], [ 19888767.788141027092934, -5630848.524234681390226 ], [ 20037508.342789243906736, -5630848.524234681390226 ], [ 20037508.342789243906736, -5673500.043360920622945 ], [ 19888767.788141027092934, -5673500.043360920622945 ] ] ] } },
{ "type": "Feature", "properties": { }, "geometry": { "type": "Polygon", "coordinates": [ [ [ 19889810.794288016855717, -5630848.524234681390226 ], [ 19889810.794288016855717, -5588367.291826317086816 ], [ 20037508.342789243906736, -5588367.291826317086816 ], [ 20037508.342789243906736, -5630848.524234681390226 ], [ 19889810.794288016855717, -5630848.524234681390226 ] ] ] } },
{ "type": "Feature", "properties": { }, "geometry": { "type": "Polygon", "coordinates": [ [ [ 19890849.636220056563616, -5588367.291826317086816 ], [ 19890849.636220056563616, -5546055.666264000348747 ], [ 20037508.342789243906736, -5546055.666264000348747 ], [ 20037508.342789243906736, -5588367.291826317086816 ], [ 19890849.636220056563616, -5588367.291826317086816 ] ] ] } },
{ "type": "Feature", "properties": { }, "geometry": { "type": "Polygon", "coordinates": [ [ [ 19891884.330562826246023, -5546055.666264000348747 ], [ 19891884.330562826246023, -5503912.970390299335122 ], [ 20037508.342789243906736, -5503912.970390299335122 ], [ 20037508.342789243906736, -5546055.666264000348747 ], [ 19891884.330562826246023, -5546055.666264000348747 ] ] ] } },
{ "type": "Feature", "properties": { }, "geometry": { "type": "Polygon", "coordinates": [ [ [ 19892914.893875632435083, -5503912.970390299335122 ], [ 19892914.893875632435083, -5461938.529751342721283 ], [ 20037508.342789243906736, -5461938.529751342721283 ], [ 20037508.342789243906736, -5503912.970390299335122 ], [ 19892914.893875632435083, -5503912.970390299335122 ] ] ] } },
{ "type": "Feature", "properties": { }, "geometry": { "type": "Polygon", "coordinates": [ [ [ 19893941.342651661485434, -5461938.529751342721283 ], [ 19893941.342651661485434, -5420131.672586022876203 ], [ 20037508.342789243906736, -5420131.672586022876203 ], [ 20037508.342789243906736, -5461938.529751342721283 ], [ 19893941.342651661485434, -5461938.529751342721283 ] ] ] } },
{ "type": "Feature", "properties": { }, "geometry": { "type": "Polygon", "coordinates": [ [ [ 19894963.693318247795105, -5420131.672586022876203 ], [ 19894963.693318247795105, -5378491.729815248399973 ], [ 20037508.342789243906736, -5378491.729815248399973 ], [ 20037508.342789243906736, -5420131.672586022876203 ], [ 19894963.693318247795105, -5420131.672586022876203 ] ] ] } },
{ "type": "Feature", "properties": { }, "geometry": { "type": "Polygon", "coordinates": [ [ [ 19895981.962237149477005, -5378491.729815248399973 ], [ 19895981.962237149477005, -5337018.035031232982874 ], [ 20037508.342789243906736, -5337018.035031232982874 ], [ 20037508.342789243906736, -5378491.729815248399973 ], [ 19895981.962237149477005, -5378491.729815248399973 ] ] ] } },
{ "type": "Feature", "properties": { }, "geometry": { "type": "Polygon", "coordinates": [ [ [ 19896996.165704790502787, -5337018.035031232982874 ], [ 19896996.165704790502787, -5295709.924486832693219 ], [ 20037508.342789243906736, -5295709.924486832693219 ], [ 20037508.342789243906736, -5337018.035031232982874 ], [ 19896996.165704790502787, -5337018.035031232982874 ] ] ] } },
{ "type": "Feature", "properties": { }, "geometry": { "type": "Polygon", "coordinates": [ [ [ 19898006.319952540099621, -5295709.924486832693219 ], [ 19898006.319952540099621, -5254566.737084921449423 ], [ 20037508.342789243906736, -5254566.737084921449423 ], [ 20037508.342789243906736, -5295709.924486832693219 ], [ 19898006.319952540099621, -5295709.924486832693219 ] ] ] } },
{ "type": "Feature", "properties": { }, "geometry": { "type": "Polygon", "coordinates": [ [ [ 19899012.441146954894066, -5254566.737084921449423 ], [ 19899012.441146954894066, -5213587.814367813058197 ], [ 20037508.342789243906736, -5213587.814367813058197 ], [ 20037508.342789243906736, -5254566.737084921449423 ], [ 19899012.441146954894066, -5254566.737084921449423 ] ] ] } },
{ "type": "Feature", "properties": { }, "geometry": { "type": "Polygon", "coordinates": [ [ [ 19900014.545390050858259, -5213587.814367813058197 ], [ 19900014.545390050858259, -5172772.500506720505655 ], [ 20037508.342789243906736, -5172772.500506720505655 ], [ 20037508.342789243906736, -5213587.814367813058197 ], [ 19900014.545390050858259, -5213587.814367813058197 ] ] ] } },
{ "type": "Feature", "properties": { }, "geometry": { "type": "Polygon", "coordinates": [ [ [ 19901012.648719556629658, -5172772.500506720505655 ], [ 19901012.648719556629658, -5132120.142291260883212 ], [ 20037508.342789243906736, -5132120.142291260883212 ], [ 20037508.342789243906736, -5172772.500506720505655 ], [ 19901012.648719556629658, -5172772.500506720505655 ] ] ] } },
{ "type": "Feature", "properties": { }, "geometry": { "type": "Polygon", "coordinates": [ [ [ 19902006.767109166830778, -5132120.142291260883212 ], [ 19902006.767109166830778, -5091630.089119003154337 ], [ 20037508.342789243906736, -5091630.089119003154337 ], [ 20037508.342789243906736, -5132120.142291260883212 ], [ 19902006.767109166830778, -5132120.142291260883212 ] ] ] } },
{ "type": "Feature", "properties": { }, "geometry": { "type": "Polygon", "coordinates": [ [ [ 19902996.916468810290098, -5091630.089119003154337 ], [ 19902996.916468810290098, -5051301.69298505410552 ], [ 20037508.342789243906736, -5051301.69298505410552 ], [ 20037508.342789243906736, -5091630.089119003154337 ], [ 19902996.916468810290098, -5091630.089119003154337 ] ] ] } },
{ "type": "Feature", "properties": { }, "geometry": { "type": "Polygon", "coordinates": [ [ [ 19903983.112644877284765, -5051301.69298505410552 ], [ 19903983.112644877284765, -5011134.308471688069403 ], [ 20037508.342789243906736, -5011134.308471688069403 ], [ 20037508.342789243906736, -5051301.69298505410552 ], [ 19903983.112644877284765, -5051301.69298505410552 ] ] ] } },
{ "type": "Feature", "properties": { }, "geometry": { "type": "Polygon", "coordinates": [ [ [ 19904965.37142051383853, -5011134.308471688069403 ], [ 19904965.37142051383853, -4971127.292738017626107 ], [ 20037508.342789243906736, -4971127.292738017626107 ], [ 20037508.342789243906736, -5011134.308471688069403 ], [ 19904965.37142051383853, -5011134.308471688069403 ] ] ] } },
{ "type": "Feature", "properties": { }, "geometry": { "type": "Polygon", "coordinates": [ [ [ 19905943.708515830338001, -4971127.292738017626107 ], [ 19905943.708515830338001, -4931280.005509705282748 ], [ 20037508.342789243906736, -4931280.005509705282748 ], [ 20037508.342789243906736, -4971127.292738017626107 ], [ 19905943.708515830338001, -4971127.292738017626107 ] ] ] } },
{ "type": "Feature", "properties": { }, "geometry": { "type": "Polygon", "coordinates": [ [ [ 19906918.139588192105293, -4931280.005509705282748 ], [ 19906918.139588192105293, -4891591.809068717062473 ], [ 20037508.342789243906736, -4891591.809068717062473 ], [ 20037508.342789243906736, -4931280.005509705282748 ], [ 19906918.139588192105293, -4931280.005509705282748 ] ] ] } },
{ "type": "Feature", "properties": { }, "geometry": { "type": "Polygon", "coordinates": [ [ [ 19907888.680232435464859, -4891591.809068717062473 ], [ 19907888.680232435464859, -4852062.068243116140366 ], [ 20037508.342789243906736, -4852062.068243116140366 ], [ 20037508.342789243906736, -4891591.809068717062473 ], [ 19907888.680232435464859, -4891591.809068717062473 ] ] ] } },
{ "type": "Feature", "properties": { }, "geometry": { "type": "Polygon", "coordinates": [ [ [ 19908855.345981150865555, -4852062.068243116140366 ], [ 19908855.345981150865555, -4812690.150396896526217 ], [ 20037508.342789243906736, -4812690.150396896526217 ], [ 20037508.342789243906736, -4852062.068243116140366 ], [ 19908855.345981150865555, -4852062.068243116140366 ] ] ] } },
{ "type": "Feature", "properties": { }, "geometry": { "type": "Polygon", "coordinates": [ [ [ 19909818.152304902672768, -4812690.150396896526217 ], [ 19909818.152304902672768, -4773475.425419860519469 ], [ 20037508.342789243906736, -4773475.425419860519469 ], [ 20037508.342789243906736, -4812690.150396896526217 ], [ 19909818.152304902672768, -4812690.150396896526217 ] ] ] } },
{ "type": "Feature", "properties": { }, "geometry": { "type": "Polygon", "coordinates": [ [ [ 19910777.114612489938736, -4773475.425419860519469 ], [ 19910777.114612489938736, -4734417.265717533417046 ], [ 20037508.342789243906736, -4734417.265717533417046 ], [ 20037508.342789243906736, -4773475.425419860519469 ], [ 19910777.114612489938736, -4773475.425419860519469 ] ] ] } },
{ "type": "Feature", "properties": { }, "geometry": { "type": "Polygon", "coordinates": [ [ [ 19911732.24825119972229, -4734417.265717533417046 ], [ 19911732.24825119972229, -4695515.046201118268073 ], [ 20037508.342789243906736, -4695515.046201118268073 ], [ 20037508.342789243906736, -4734417.265717533417046 ], [ 19911732.24825119972229, -4734417.265717533417046 ] ] ] } },
{ "type": "Feature", "properties": { }, "geometry": { "type": "Polygon", "coordinates": [ [ [ 19912683.568507041782141, -4695515.046201118268073 ], [ 19912683.568507041782141, -4656768.144277493469417 ], [ 20037508.342789243906736, -4656768.144277493469417 ], [ 20037508.342789243906736, -4695515.046201118268073 ], [ 19912683.568507041782141, -4695515.046201118268073 ] ] ] } },
{ "type": "Feature", "properties": { }, "geometry": { "type": "Polygon", "coordinates": [ [ [ 19913631.090604986995459, -4656768.144277493469417 ], [ 19913631.090604986995459, -4618175.939839247614145 ], [ 20037508.342789243906736, -4618175.939839247614145 ], [ 20037508.342789243906736, -4656768.144277493469417 ], [ 19913631.090604986995459, -4656768.144277493469417 ] ] ] } },
{ "type": "Feature", "properties": { }, "geometry": { "type": "Polygon", "coordinates": [ [ [ 19914574.829709231853485, -4618175.939839247614145 ], [ 19914574.829709231853485, -4579737.815254756249487 ], [ 20037508.342789243906736, -4579737.815254756249487 ], [ 20037508.342789243906736, -4618175.939839247614145 ], [ 19914574.829709231853485, -4618175.939839247614145 ] ] ] } },
{ "type": "Feature", "properties": { }, "geometry": { "type": "Polygon", "coordinates": [ [ [ 19915514.800923425704241, -4579737.815254756249487 ], [ 19915514.800923425704241, -4541453.155358295887709 ], [ 20037508.342789243906736, -4541453.155358295887709 ], [ 20037508.342789243906736, -4579737.815254756249487 ], [ 19915514.800923425704241, -4579737.815254756249487 ] ] ] } },
{ "type": "Feature", "properties": { }, "geometry": { "type": "Polygon", "coordinates": [ [ [ 19916451.019290916621685, -4541453.155358295887709 ], [ 19916451.019290916621685, -4503321.347440201789141 ], [ 20037508.342789243906736, -4503321.347440201789141 ], [ 20037508.342789243906736, -4541453.155358295887709 ], [ 19916451.019290916621685, -4541453.155358295887709 ] ] ] } },
{ "type": "Feature", "properties": { }, "geometry": { "type": "Polygon", "coordinates": [ [ [ 19917383.499794989824295, -4503321.347440201789141 ], [ 19917383.499794989824295, -4465341.781237058341503 ], [ 20037508.342789243906736, -4465341.781237058341503 ], [ 20037508.342789243906736, -4503321.347440201789141 ], [ 19917383.499794989824295, -4503321.347440201789141 ] ] ] } },
{ "type": "Feature", "properties": { }, "geometry": { "type": "Polygon", "coordinates": [ [ [ 19918312.257359113544226, -4465341.781237058341503 ], [ 19918312.257359113544226, -4427513.848921935074031 ], [ 20037508.342789243906736, -4427513.848921935074031 ], [ 20037508.342789243906736, -4465341.781237058341503 ], [ 19918312.257359113544226, -4465341.781237058341503 ] ] ] } },
{ "type": "Feature", "properties": { }, "geometry": { "type": "Polygon", "coordinates": [ [ [ 19919237.306847169995308, -4427513.848921935074031 ], [ 19919237.306847169995308, -4389836.945094658061862 ], [ 20037508.342789243906736, -4389836.945094658061862 ], [ 20037508.342789243906736, -4427513.848921935074031 ], [ 19919237.306847169995308, -4427513.848921935074031 ] ] ] } },
{ "type": "Feature", "properties": { }, "geometry": { "type": "Polygon", "coordinates": [ [ [ 19920158.663063697516918, -4389836.945094658061862 ], [ 19920158.663063697516918, -4352310.466772119514644 ], [ 20037508.342789243906736, -4352310.466772119514644 ], [ 20037508.342789243906736, -4389836.945094658061862 ], [ 19920158.663063697516918, -4389836.945094658061862 ] ] ] } },
{ "type": "Feature", "properties": { }, "geometry": { "type": "Polygon", "coordinates": [ [ [ 19921076.340754132717848, -4352310.466772119514644 ], [ 19921076.340754132717848, -4314933.813378632068634 ], [ 20037508.342789243906736, -4314933.813378632068634 ], [ 20037508.342789243906736, -4352310.466772119514644 ], [ 19921076.340754132717848, -4352310.466772119514644 ] ] ] } },
{ "type": "Feature", "properties": { }, "geometry": { "type": "Polygon", "coordinates": [ [ [ 19921990.354605030268431, -4314933.813378632068634 ], [ 19921990.354605030268431, -4277706.386736311018467 ], [ 20037508.342789243906736, -4277706.386736311018467 ], [ 20037508.342789243906736, -4314933.813378632068634 ], [ 19921990.354605030268431, -4314933.813378632068634 ] ] ] } },
{ "type": "Feature", "properties": { }, "geometry": { "type": "Polygon", "coordinates": [ [ [ 19922900.719244319945574, -4277706.386736311018467 ], [ 19922900.719244319945574, -4240627.591055506840348 ], [ 20037508.342789243906736, -4240627.591055506840348 ], [ 20037508.342789243906736, -4277706.386736311018467 ], [ 19922900.719244319945574, -4277706.386736311018467 ] ] ] } },
{ "type": "Feature", "properties": { }, "geometry": { "type": "Polygon", "coordinates": [ [ [ 19923807.449241522699594, -4240627.591055506840348 ], [ 19923807.449241522699594, -4203696.832925266586244 ], [ 20037508.342789243906736, -4203696.832925266586244 ], [ 20037508.342789243906736, -4240627.591055506840348 ], [ 19923807.449241522699594, -4240627.591055506840348 ] ] ] } },
{ "type": "Feature", "properties": { }, "geometry": { "type": "Polygon", "coordinates": [ [ [ 19924710.5591079890728, -4203696.832925266586244 ], [ 19924710.5591079890728, -4166913.521303837187588 ], [ 20037508.342789243906736, -4166913.521303837187588 ], [ 20037508.342789243906736, -4203696.832925266586244 ], [ 19924710.5591079890728, -4203696.832925266586244 ] ] ] } },
{ "type": "Feature", "properties": { }, "geometry": { "type": "Polygon", "coordinates": [ [ [ 19925610.063297141343355, -4166913.521303837187588 ], [ 19925610.063297141343355, -4130277.067509208340198 ], [ 20037508.342789243906736, -4130277.067509208340198 ], [ 20037508.342789243906736, -4166913.521303837187588 ], [ 19925610.063297141343355, -4166913.521303837187588 ] ] ] } },
{ "type": "Feature", "properties": { }, "geometry": { "type": "Polygon", "coordinates": [ [ [ 19926505.976204685866833, -4130277.067509208340198 ], [ 19926505.976204685866833, -4093786.885209688916802 ], [ 20037508.342789243906736, -4093786.885209688916802 ], [ 20037508.342789243906736, -4130277.067509208340198 ], [ 19926505.976204685866833, -4130277.067509208340198 ] ] ] } },
{ "type": "Feature", "properties": { }, "geometry": { "type": "Polygon", "coordinates": [ [ [ 19927398.31216886267066, -4093786.885209688916802 ], [ 19927398.31216886267066, -4057442.390414524823427 ], [ 20037508.342789243906736, -4057442.390414524823427 ], [ 20037508.342789243906736, -4093786.885209688916802 ], [ 19927398.31216886267066, -4093786.885209688916802 ] ] ] } },
{ "type": "Feature", "properties": { }, "geometry": { "type": "Polygon", "coordinates": [ [ [ 19928287.085470661520958, -4057442.390414524823427 ], [ 19928287.085470661520958, -4021243.001464552246034 ], [ 20037508.342789243906736, -4021243.001464552246034 ], [ 20037508.342789243906736, -4057442.390414524823427 ], [ 19928287.085470661520958, -4057442.390414524823427 ] ] ] } },
{ "type": "Feature", "properties": { }, "geometry": { "type": "Polygon", "coordinates": [ [ [ 19929172.310334056615829, -4021243.001464552246034 ], [ 19929172.310334056615829, -3985188.139022888615727 ], [ 20037508.342789243906736, -3985188.139022888615727 ], [ 20037508.342789243906736, -4021243.001464552246034 ], [ 19929172.310334056615829, -4021243.001464552246034 ] ] ] } },
{ "type": "Feature", "properties": { }, "geometry": { "type": "Polygon", "coordinates": [ [ [ 19930054.000926226377487, -3985188.139022888615727 ], [ 19930054.000926226377487, -3949277.226065661758184 ], [ 20037508.342789243906736, -3949277.226065661758184 ], [ 20037508.342789243906736, -3985188.139022888615727 ], [ 19930054.000926226377487, -3985188.139022888615727 ] ] ] } },
{ "type": "Feature", "properties": { }, "geometry": { "type": "Polygon", "coordinates": [ [ [ 19930932.171357803046703, -3949277.226065661758184 ], [ 19930932.171357803046703, -3913509.687872773036361 ], [ 20037508.342789243906736, -3913509.687872773036361 ], [ 20037508.342789243906736, -3949277.226065661758184 ], [ 19930932.171357803046703, -3949277.226065661758184 ] ] ] } },
{ "type": "Feature", "properties": { }, "geometry": { "type": "Polygon", "coordinates": [ [ [ 19931806.835683058947325, -3913509.687872773036361 ], [ 19931806.835683058947325, -3877884.952018702402711 ], [ 20037508.342789243906736, -3877884.952018702402711 ], [ 20037508.342789243906736, -3913509.687872773036361 ], [ 19931806.835683058947325, -3913509.687872773036361 ] ] ] } },
{ "type": "Feature", "properties": { }, "geometry": { "type": "Polygon", "coordinates": [ [ [ 19932678.007900178432465, -3877884.952018702402711 ], [ 19932678.007900178432465, -3842402.448363344650716 ], [ 20037508.342789243906736, -3842402.448363344650716 ], [ 20037508.342789243906736, -3877884.952018702402711 ], [ 19932678.007900178432465, -3877884.952018702402711 ] ] ] } },
{ "type": "Feature", "properties": { }, "geometry": { "type": "Polygon", "coordinates": [ [ [ 19933545.701951436698437, -3842402.448363344650716 ], [ 19933545.701951436698437, -3807061.609042886644602 ], [ 20037508.342789243906736, -3807061.609042886644602 ], [ 20037508.342789243906736, -3842402.448363344650716 ], [ 19933545.701951436698437, -3842402.448363344650716 ] ] ] } },
{ "type": "Feature", "properties": { }, "geometry": { "type": "Polygon", "coordinates": [ [ [ 19934409.931723464280367, -3807061.609042886644602 ], [ 19934409.931723464280367, -3771861.868460718076676 ], [ 20037508.342789243906736, -3771861.868460718076676 ], [ 20037508.342789243906736, -3807061.609042886644602 ], [ 19934409.931723464280367, -3807061.609042886644602 ] ] ] } },
{ "type": "Feature", "properties": { }, "geometry": { "type": "Polygon", "coordinates": [ [ [ 19935270.711047429591417, -3771861.868460718076676 ], [ 19935270.711047429591417, -3736802.663278380874544 ], [ 20037508.342789243906736, -3736802.663278380874544 ], [ 20037508.342789243906736, -3771861.868460718076676 ], [ 19935270.711047429591417, -3771861.868460718076676 ] ] ] } },
{ "type": "Feature", "properties": { }, "geometry": { "type": "Polygon", "coordinates": [ [ [ 19936128.053699292242527, -3736802.663278380874544 ], [ 19936128.053699292242527, -3701883.432406552135944 ], [ 20037508.342789243906736, -3701883.432406552135944 ], [ 20037508.342789243906736, -3736802.663278380874544 ], [ 19936128.053699292242527, -3736802.663278380874544 ] ] ] } },
{ "type": "Feature", "properties": { }, "geometry": { "type": "Polygon", "coordinates": [ [ [ 19936981.973400007933378, -3701883.432406552135944 ], [ 19936981.973400007933378, -3667103.616996064782143 ], [ 20037508.342789243906736, -3667103.616996064782143 ], [ 20037508.342789243906736, -3701883.432406552135944 ], [ 19936981.973400007933378, -3701883.432406552135944 ] ] ] } },
{ "type": "Feature", "properties": { }, "geometry": { "type": "Polygon", "coordinates": [ [ [ 19937832.483815755695105, -3667103.616996064782143 ], [ 19937832.483815755695105, -3632462.660428964532912 ], [ 20037508.342789243906736, -3632462.660428964532912 ], [ 20037508.342789243906736, -3667103.616996064782143 ], [ 19937832.483815755695105, -3667103.616996064782143 ] ] ] } },
{ "type": "Feature", "properties": { }, "geometry": { "type": "Polygon", "coordinates": [ [ [ 19938679.598558142781258, -3632462.660428964532912 ], [ 19938679.598558142781258, -3597960.008309600874782 ], [ 20037508.342789243906736, -3597960.008309600874782 ], [ 20037508.342789243906736, -3632462.660428964532912 ], [ 19938679.598558142781258, -3632462.660428964532912 ] ] ] } },
{ "type": "Feature", "properties": { }, "geometry": { "type": "Polygon", "coordinates": [ [ [ 19939523.331184439361095, -3597960.008309600874782 ], [ 19939523.331184439361095, -3563595.108455754816532 ], [ 20037508.342789243906736, -3563595.108455754816532 ], [ 20037508.342789243906736, -3597960.008309600874782 ], [ 19939523.331184439361095, -3597960.008309600874782 ] ] ] } },
{ "type": "Feature", "properties": { }, "geometry": { "type": "Polygon", "coordinates": [ [ [ 19940363.695197783410549, -3563595.108455754816532 ], [ 19940363.695197783410549, -3529367.410889802034944 ], [ 20037508.342789243906736, -3529367.410889802034944 ], [ 20037508.342789243906736, -3563595.108455754816532 ], [ 19940363.695197783410549, -3563595.108455754816532 ] ] ] } },
{ "type": "Feature", "properties": { }, "geometry": { "type": "Polygon", "coordinates": [ [ [ 19941200.704047407954931, -3529367.410889802034944 ], [ 19941200.704047407954931, -3495276.367829910479486 ], [ 20037508.342789243906736, -3495276.367829910479486 ], [ 20037508.342789243906736, -3529367.410889802034944 ], [ 19941200.704047407954931, -3529367.410889802034944 ] ] ] } },
{ "type": "Feature", "properties": { }, "geometry": { "type": "Polygon", "coordinates": [ [ [ 19942034.371128842234612, -3495276.367829910479486 ], [ 19942034.371128842234612, -3461321.433681273367256 ], [ 20037508.342789243906736, -3461321.433681273367256 ], [ 20037508.342789243906736, -3495276.367829910479486 ], [ 19942034.371128842234612, -3495276.367829910479486 ] ] ] } },
{ "type": "Feature", "properties": { }, "geometry": { "type": "Polygon", "coordinates": [ [ [ 19942864.709784135222435, -3461321.433681273367256 ], [ 19942864.709784135222435, -3427502.065027378499508 ], [ 20037508.342789243906736, -3427502.065027378499508 ], [ 20037508.342789243906736, -3461321.433681273367256 ], [ 19942864.709784135222435, -3461321.433681273367256 ] ] ] } },
{ "type": "Feature", "properties": { }, "geometry": { "type": "Polygon", "coordinates": [ [ [ 19943691.73330207541585, -3427502.065027378499508 ], [ 19943691.73330207541585, -3393817.720621310640126 ], [ 20037508.342789243906736, -3393817.720621310640126 ], [ 20037508.342789243906736, -3427502.065027378499508 ], [ 19943691.73330207541585, -3427502.065027378499508 ] ] ] } },
{ "type": "Feature", "properties": { }, "geometry": { "type": "Polygon", "coordinates": [ [ [ 19944515.454918388277292, -3393817.720621310640126 ], [ 19944515.454918388277292, -3360267.86137708928436 ], [ 20037508.342789243906736, -3360267.86137708928436 ], [ 20037508.342789243906736, -3393817.720621310640126 ], [ 19944515.454918388277292, -3393817.720621310640126 ] ] ] } },
{ "type": "Feature", "properties": { }, "geometry": { "type": "Polygon", "coordinates": [ [ [ 19945335.887815952301025, -3360267.86137708928436 ], [ 19945335.887815952301025, -3326851.950361041817814 ], [ 20037508.342789243906736, -3326851.950361041817814 ], [ 20037508.342789243906736, -3360267.86137708928436 ], [ 19945335.887815952301025, -3360267.86137708928436 ] ] ] } },
{ "type": "Feature", "properties": { }, "geometry": { "type": "Polygon", "coordinates": [ [ [ 19946153.045125022530556, -3326851.950361041817814 ], [ 19946153.045125022530556, -3293569.452783210203052 ], [ 20037508.342789243906736, -3293569.452783210203052 ], [ 20037508.342789243906736, -3326851.950361041817814 ], [ 19946153.045125022530556, -3326851.950361041817814 ] ] ] } },
{ "type": "Feature", "properties": { }, "geometry": { "type": "Polygon", "coordinates": [ [ [ 19946966.93992342799902, -3293569.452783210203052 ], [ 19946966.93992342799902, -3260419.835988791193813 ], [ 20037508.342789243906736, -3260419.835988791193813 ], [ 20037508.342789243906736, -3293569.452783210203052 ], [ 19946966.93992342799902, -3293569.452783210203052 ] ] ] } },
{ "type": "Feature", "properties": { }, "geometry": { "type": "Polygon", "coordinates": [ [ [ 19947777.585236772894859, -3260419.835988791193813 ], [ 19947777.585236772894859, -3227402.569449612405151 ], [ 20037508.342789243906736, -3227402.569449612405151 ], [ 20037508.342789243906736, -3260419.835988791193813 ], [ 19947777.585236772894859, -3260419.835988791193813 ] ] ] } },
{ "type": "Feature", "properties": { }, "geometry": { "type": "Polygon", "coordinates": [ [ [ 19948584.994038678705692, -3227402.569449612405151 ], [ 19948584.994038678705692, -3194517.124755642842501 ], [ 20037508.342789243906736, -3194517.124755642842501 ], [ 20037508.342789243906736, -3227402.569449612405151 ], [ 19948584.994038678705692, -3227402.569449612405151 ] ] ] } },
{ "type": "Feature", "properties": { }, "geometry": { "type": "Polygon", "coordinates": [ [ [ 19949389.179250951856375, -3194517.124755642842501 ], [ 19949389.179250951856375, -3161762.975606533698738 ], [ 20037508.342789243906736, -3161762.975606533698738 ], [ 20037508.342789243906736, -3194517.124755642842501 ], [ 19949389.179250951856375, -3194517.124755642842501 ] ] ] } },
{ "type": "Feature", "properties": { }, "geometry": { "type": "Polygon", "coordinates": [ [ [ 19950190.15374381095171, -3161762.975606533698738 ], [ 19950190.15374381095171, -3129139.597803197801113 ], [ 20037508.342789243906736, -3129139.597803197801113 ], [ 20037508.342789243906736, -3161762.975606533698738 ], [ 19950190.15374381095171, -3161762.975606533698738 ] ] ] } },
{ "type": "Feature", "properties": { }, "geometry": { "type": "Polygon", "coordinates": [ [ [ 19950987.930336099117994, -3129139.597803197801113 ], [ 19950987.930336099117994, -3096646.469239418860525 ], [ 20037508.342789243906736, -3096646.469239418860525 ], [ 20037508.342789243906736, -3129139.597803197801113 ], [ 19950987.930336099117994, -3129139.597803197801113 ] ] ] } },
{ "type": "Feature", "properties": { }, "geometry": { "type": "Polygon", "coordinates": [ [ [ 19951782.521795470267534, -3096646.469239418860525 ], [ 19951782.521795470267534, -3064283.069893496576697 ], [ 20037508.342789243906736, -3064283.069893496576697 ], [ 20037508.342789243906736, -3096646.469239418860525 ], [ 19951782.521795470267534, -3096646.469239418860525 ] ] ] } },
{ "type": "Feature", "properties": { }, "geometry": { "type": "Polygon", "coordinates": [ [ [ 19952573.940838605165482, -3064283.069893496576697 ], [ 19952573.940838605165482, -3032048.881819923408329 ], [ 20037508.342789243906736, -3032048.881819923408329 ], [ 20037508.342789243906736, -3064283.069893496576697 ], [ 19952573.940838605165482, -3064283.069893496576697 ] ] ] } },
{ "type": "Feature", "properties": { }, "geometry": { "type": "Polygon", "coordinates": [ [ [ 19953362.200131420046091, -3032048.881819923408329 ], [ 19953362.200131420046091, -2999943.389141095336527 ], [ 20037508.342789243906736, -2999943.389141095336527 ], [ 20037508.342789243906736, -3032048.881819923408329 ], [ 19953362.200131420046091, -3032048.881819923408329 ] ] ] } },
{ "type": "Feature", "properties": { }, "geometry": { "type": "Polygon", "coordinates": [ [ [ 19954147.312289256602526, -2999943.389141095336527 ], [ 19954147.312289256602526, -2967966.078039056621492 ], [ 20037508.342789243906736, -2967966.078039056621492 ], [ 20037508.342789243906736, -2999943.389141095336527 ], [ 19954147.312289256602526, -2999943.389141095336527 ] ] ] } },
{ "type": "Feature", "properties": { }, "geometry": { "type": "Polygon", "coordinates": [ [ [ 19954929.289877083152533, -2967966.078039056621492 ], [ 19954929.289877083152533, -2936116.436747275292873 ], [ 20037508.342789243906736, -2936116.436747275292873 ], [ 20037508.342789243906736, -2967966.078039056621492 ], [ 19954929.289877083152533, -2967966.078039056621492 ] ] ] } },
{ "type": "Feature", "properties": { }, "geometry": { "type": "Polygon", "coordinates": [ [ [ 19955708.145409718155861, -2936116.436747275292873 ], [ 19955708.145409718155861, -2904393.955542454961687 ], [ 20037508.342789243906736, -2904393.955542454961687 ], [ 20037508.342789243906736, -2936116.436747275292873 ], [ 19955708.145409718155861, -2936116.436747275292873 ] ] ] } },
{ "type": "Feature", "properties": { }, "geometry": { "type": "Polygon", "coordinates": [ [ [ 19956483.891352001577616, -2904393.955542454961687 ], [ 19956483.891352001577616, -2872798.126736374106258 ], [ 20037508.342789243906736, -2872798.126736374106258 ], [ 20037508.342789243906736, -2904393.955542454961687 ], [ 19956483.891352001577616, -2904393.955542454961687 ] ] ] } },
{ "type": "Feature", "properties": { }, "geometry": { "type": "Polygon", "coordinates": [ [ [ 19957256.540119007229805, -2872798.126736374106258 ], [ 19957256.540119007229805, -2841328.444667764473706 ], [ 20037508.342789243906736, -2841328.444667764473706 ], [ 20037508.342789243906736, -2872798.126736374106258 ], [ 19957256.540119007229805, -2872798.126736374106258 ] ] ] } },
{ "type": "Feature", "properties": { }, "geometry": { "type": "Polygon", "coordinates": [ [ [ 19958026.104076255112886, -2841328.444667764473706 ], [ 19958026.104076255112886, -2809984.405694215092808 ], [ 20037508.342789243906736, -2809984.405694215092808 ], [ 20037508.342789243906736, -2841328.444667764473706 ], [ 19958026.104076255112886, -2841328.444667764473706 ] ] ] } }
]
}
